Name,Address,Zipcode,Phone,Email,Latitude,Longitude,city,country,email
Arragons Cycle Centre,2 Brunswick Road,CA11 7LU,+44 1768890344,,54.665799,-2.7554502,Penrith,United Kingdom,arragonscycles@mac.com
Avon Valley Cyclery,Brunel Square,BA1 1SX,+44 1225442442,,51.3776576,-2.3568859,Bath,United Kingdom,shop@avonvalleycyclery.co.uk
Bicycle Doctor,68 70 Dickenson Road,M14 5HF,+44 1612241303,,53.4522141,-2.2192387,Manchester,United Kingdom,sales@bicycledoctor.com
Birdie Bikes Hampton,7 Wensleydale Road,TW12 2LP,+44 2089419397,,51.417184,-0.3693656,Hampton,United Kingdom,info@birdiebikes.co.uk
C H White & Son,51 High Street,SN16 9AG,+44 1666822330,,51.58206,-2.0974,Malmesbury,United Kingdom,chwhite@btinternet.com
Clive Mitchell Cycles,6 Calenick Street,TR1 2SF,+44 1872276930,,50.262524,-5.0541487,Truro,United Kingdom,shop@clivemitchellcycles.co.uk
Colchester Cycle Stores,50 St Johns Street,CO2 7AD,+44 1206563890,,51.887682,0.89792493,Colchester,United Kingdom,colchester.cycles@yahoo.co.uk
Condor Cycles Ltd,49-53 Grays Inn Road,WC1X 8PP,+44 2072696820,,51.5220435,-0.1140495,London,United Kingdom,customer.service@condorcycles.com
Cyclecare Kensington Ltd,54 Earls Court Road,W8 6EJ,+44 2074600495,,51.4977,-0.19786,London,United Kingdom,cyclecarekensington54@gmail.com
Cycle Heaven,31 Hospital Fields Road,YO10 4FS,+44 1904651870,,53.9450631,-1.0773428,York,United Kingdom,info@cycle-heaven.co.uk
Cycle Revival,Oxford House,TN21 8AA,+44 1435866118,,50.9656783,0.2557151,Heathfield,United Kingdom,info@cyclerevival.co.uk
Dales,150 Dobbies Loan,G4 0JE,+44 1413322705,,55.8677377,-4.2487973,Glasgow,United Kingdom,sales@dalescycles.com
Damian Harris Cycles,55B Merthyr Road,CF14 1DD,+44 2920529955,,51.5120091,-3.2181952,Cardiff,United Kingdom,accounts@damianharriscycles.co.uk
De Ver Cycles,632 - 636 Streatham High Road,SW16 3QL,+44 2086796197,,51.4140676,-0.1246812,London,United Kingdom,devercycle@aol.com
Compton Cycles,23/25 Catford Hill,SE6 4NU,+44 2086900141,,51.44277,-0.02708,London,United Kingdom,info@comptoncycles.co.uk
Fred Williams Cycles,37 Snow Hill,WV2 4AG,+44 1902428407,,52.5816783,-2.1260702,Wolverhampton,United Kingdom,fredsofficewench@gmail.com
Hargroves Cycles Ltd,150 Commercial Road,SO40 3AA,+44 2380428987,,50.9189434,-1.4813216,Totton,United Kingdom,southampton@hargrovescycles.co.uk
Harry Hall Cycles,67 Whitworth Street West,M1 5WQ,+44 1612365699,,53.47443,-2.24308,Manchester,United Kingdom,info@harryhallcycles.co.uk
Ian Brown's Cycle Shop,Les Banques,GY1 2HZ,+44 1481721581,,49.4697648,-2.5339142,St Peter Port,Guernsey,enquiries@ianbrowns.co.uk
J E James Cycles Chesterfield,Brimington Road North,S41 9AP,+44 1246453453,,53.2592418,-1.4236119,Chesterfield,United Kingdom,chesterfield@jejamescycles.com
Ken Foster's Cycle Logic,374-376 Barlow Moor Road,M21 8AZ,+44 1618817160,,53.4381057,-2.2740652,Manchester,United Kingdom,info@kenfosterscyclelogic.co.uk
Mastercraft Cycles,39 Bridge Street,HR4 9DG,+44 1432274047,,52.05342,-2.71898,Hereford,United Kingdom,lynette.quinton@mastercraftcycles.com
Moose Cycles,48 High Street,SW19 2BY,+44 2085449166,,51.4253,-0.221,London,United Kingdom,info@moosecycles.com
Mud Dock Cycleworks,40 The Grove,BS1 4RB,+44 1179292151,,51.4493759,-2.5955265,Bristol,United Kingdom,admin@mud-dock.co.uk
On Your Bike London,3-4 London Bridge Walk,SE1 2SX,+44 2073786669,,51.5062105,-0.0898761,London,United Kingdom,london@onyourbike.com
Paul's Bikes,95 Walsworth Road,SG4 9SU,+44 1462434433,,51.95157,-0.26794,Hitchin,United Kingdom,paul.bullen@gmail.com
Red Kite Cycles,2-4 Union Road,B90 3DX,+44 1217452618,,52.405131,-1.8221495,Shirley,United Kingdom,shop@redkitecycles.co.uk
Renhams Cycle Centre,17 Grace Hill,CT20 1HA,+44 1303241884,,51.0815894,1.1807545,Folkestone,United Kingdom,info@renhamscycles.co.uk
Richardsons Cycles,99-101 Elm Road,SS9 1SP,+44 1702713847,,51.54407,0.65404,Leigh on Sea,United Kingdom,richardsonscycles@hotmail.co.uk
South Downs Bikes,38 West Street,RH20 4EE,+44 1903745534,,50.9182749,-0.4564837,Storrington,United Kingdom,online@southdownsbikes.com
Thorn Cycles Ltd (T/A St John Street Cycles),91-93 St John Street,TA6 5HX,+44 1278441500,,51.1282365,-2.9941577,Bridgwater,United Kingdom,brompton@sjscycles.com
The Bike Factory,153-161 Boughton,CH3 5BH,+44 1244317893,,53.19237,-2.87337,Chester,United Kingdom,sales@thebikefactory.co.uk
The Cycle Centre Jersey,7 Anley Street,JE2 3QE,+44 1534876889,,49.201818,-2.117472,St. Helier,Jersey,thecyclecentrejsy@yahoo.co.uk
Uros Medved s.p.,Mesarska 36,1000,+386 41671695,,46.0472833,14.5223804,Ljubljana,Slovenia,info@brompton.si
Voss Spezial Rad GmbH,Alte Schmiede 3,25582,+49 48934287250,,53.9901836,9.4684861,Kaaks,Germany,logistik@voss-spezialrad.de
B-Fold,"Unit 1, 224 East 13th Street",10003,+1 2125297247,,40.732015,-73.9868175,New York,United States,bfoldbikes@gmail.com
Clever Cycles Limited,900 SE Hawthorne Blvd,97214,+1 5033341560,,45.512086,-122.6588017,Portland,United States,info@clevercycles.com
Trophy Bikes PHL,133 S. 23rd St.,19103,+1 2155921234,,0,0,Philadelphia,United States,info@trophybikes.com
John Atkins Cycles Ltd,32a Clemens Street,CV31 2DN,+44 1926430211,,52.28248,-1.53151,Leamington Spa,United Kingdom,info@johnatkinscycles.co.uk
On Your Bike Sutton Coldfield,92 Boldmere Road,B73 5UB,+44 1216666933,,52.5479631,-1.8500067,Sutton Coldfield,United Kingdom,birmingham@onyourbike.com
College Park Bicycles,7301 Baltimore Avenue,20740,+1 3018642211,,38.97857,-76.9376,College Park,United States,armden.info@gmail.com
Cyclecare Swindon,89 High Street,SN5 4AB,+44 1793778123,,51.5877825,-1.8676074,Swindon,United Kingdom,tim-whitty@hotmail.com
Redbike,10918 88th Avenue.,T6G 0Z1,+1 7804352674,,53.5239483,-113.5128841,Edmonton,Canada,info@redbike.ca
Bikes@Vienna,128 Church St NW,VA 22180,+1 7039388900,,38.90128,-77.266895,Vienna,United States,tim@bikesatvienna.com
Cycle Centre Newcastle,250 Shields Road,NE6 1DX,+44 1912651472,,54.97749,-1.57674,Newcastle,United Kingdom,sales@cyclecentreuk.co.uk
Electric Bikes LA,209 East El Segundo Blvd,90245,+1 3106402453,,33.9165271,-118.4137676,El Segundo,United States,craig@electricbikesla.com
Bridgegate Cycles,33 Bridgegate,DN22 7UX,+44 1777705976,,53.3241265,-0.9465473,Retford,United Kingdom,dan@byman.dk
Flying Ball Bicycle Company,Unit B1 B40-B42 B/F,HKG,+852 23813661,,22.3193039,114.1693611,Hong Kong,"China, Hong Kong Special Administrative Region",fbbikeshop@gmail.com
Darke Cycles,1 John Street,SR1 1DX,+44 1915108155,,54.9063464,-1.3802703,Sunderland,United Kingdom,info@darkecycles.co.uk
Pedal Cycles,493 Ringwood Road,BH22 9AG,+44 1202896629,,50.8003556,-1.8918522,Ferndown,United Kingdom,info@pedal-cycles.co.uk
Broadway Bicycle School,351 Broadway,2139,+1 6178683392,,42.364968,-71.103187,Cambridge,United States,parts@broadwaybicycleschool.com
Montlake Bicycle Shop,2223 24th Ave E,98112,+1 2063297333,,47.63934,-122.30238,Seattle,United States,patrick@montlakebike.com
Pasadena Cyclery,1670 E Walnut Street,91106,+1 6265846391,,34.1493727,-118.1161233,Pasadena,United States,info@pasadenacyclery.com
Diamond Cycle,409 Bloomfield Avenue,7042,+1 9735090233,,40.813193,-74.216065,Montclair,United States,info@diamondcycle.com
BernatPlus SIA,Lokomotives st.70a-27,LV-1057,+371 29361244,,56.9034538,24.2073915,Riga,Latvia,saturdaycycles@gmail.com
PortaPedal Bike Inc,2054 East Southern Avenue,85282  ,+1 4802456369,,33.3929838,-111.8979702,Tempe,United States,donna@portapedalbike.com
Bike Bike,#130-1439 10 Avenue SE,T2G 0X1,+1 4034572453,,51.038329,-114.030038,Calgary,Canada,info@bikebike.ca
Down Tube,466 Madison Avenue  ,12208,+1 5184341711,,42.65288,-73.769154,Albany,United States,downtubecycleworks@gmail.com
A Fudge & Sons Ltd,176 Chiswick High Road,W4 1PR,+44 2089941485,,51.4928444,-0.2551149,London,United Kingdom,chiswick@fudgescycles.com
Sic Transit Cycles,1002 Pontiac Trail,48105,+1 7343276900,,42.289855,-83.738762,Ann Arbor,United States,sic.transit.a2@gmail.com
Urban Bicycle Gallery,801 Durham Drive,77007,+1 7138630991,,29.7721302,-95.4100318,Houston ,United States,jon@urbanbicyclegallery.com
Legend Bicycle,181 Brook Street      ,2906,+1 4013833070,,41.821494,-71.398349,Providence,United States,info@legendbicycle.com
Fridhem Cykelaffar,Tessins väg 13,217 58,+46 40260335,,55.5961438,12.993173,Malmö,Sweden,fridhemscykel3@telia.com
Almacenes Calmera S.L.,Calle de Atocha 89,28012,+34 915277574,,40.4104893,-3.6957195,Madrid,Spain,info@calmera.es
Saddle Safari Ltd,9 Dean Street,SL7 3AA,+44 1628477020,,51.5735134,-0.7767388,Marlow,United Kingdom,info@saddlesafari.co.uk
Velorama.cz ,Osadni 16 ,170 00,774585232,,50.10428,14.44705,Praha 7,Czech Republic,ladislav.blaha@velorama.cz
CITYBIKES ,Nam. Svatopluka Cecha 5 ,101 00,234 139 444,,50.0698209,14.4597736,Praha 10,Czech Republic,
Transition Cycles,44b Castle Road,MK40 3PJ,+44 1234351154,,52.1367821,-0.4609525,Bedford,United Kingdom,transitioncycles@live.co.uk
Ride This Bike,231 Dauphine Street ,70112,+1 5043242492,,29.9559437,-90.0696483,New Orleans,United States,ridethsbk@gmail.com
Cykeldoktorn,Södra Storgatan 37,252 23,+46 42240804,,56.04466,12.70001,Helsingborg,Sweden,tommy@cykeldoktorn.se
Stampens Cykelaffär AB,Järngatan 3,441 39,+46 322611834,,57.927967,12.5471115,Alingsas,Sweden,johan@stampenscykel.se
Huckleberry Bicycles,"1255 Battery Street, Suite 120",94111,+1 4154846575,,37.7809,-122.41172,San Francisco,United States,info@huckleberrybicycles.com
C and N Cycles,32 Station Road,RH1 1PD,+44 1737760857,,51.2405,-0.17056,Redhill,United Kingdom,info@candncycles.co.uk
Bicycle Roots," 663 Franklin Ave, Brooklyn",11238,+1 7186685224,,40.6763557,-73.9496925,New York,United States,orders@bicycleroots.com
Runway Cycling,Heathrow Academy Building,TW6 2AP,+44 2089909720,,51.4800609,-0.4391763,Hounslow,United Kingdom,info@runwaycycling.com
Blue Heron Bikes,1306 Gilman St,CA 94706,+1 5105241937,,37.88134,-122.28956,Berkeley,United States,rob@blueheronbikesberkeley.com
Redbeard Bikes,"18 Bridge Street, #1E",11201,+1 7188582453,,40.704172,-73.9849065,Brooklyn,United States,ilya@redbeardbikes.com
Trompton,Overtoom 139,1054HG,+31 204122900,,52.3620005,4.8730354,Amsterdam,Netherlands,brompton@vouwfiets.nl
A W Cycles,110 Henley Road,RG4 6DH,+44 1189463050,,51.47081892,-0.959445108,Reading,United Kingdom,info@awcycles.co.uk
Kok Fietsen,Nachtegaalstraat 51,3581 AD,+31 302315780,,52.09172,5.13107,Utrecht,Netherlands,info@kokfietsen.nl
Lunar Cycles,66 Wilkin Street Mews,NW5 3NN,+44 2074821515,,51.547052,-0.1468792,London,United Kingdom,info@lunarcycles.co.uk
The Off Ramp - Santa Clara,2369 El Camino Real,0.9505,+1 4082492848,,37.352718,-121.9700327,.Santa Clara,United States,offrampbikes72@gmail.com
Oraintxe S.L.,Calle de San Antón 64,31001,+34 948213033,,42.8158409,-1.647291,Pamplona,Spain,mundoraintxe@gmail.com
Gama Bicicletas S.L,C/ Domingo Beltran de Otazu 8,1012,+34 945247542,,42.8529,-2.6791687,Vitoria-Gasteiz,Spain,taller@gamabicicletas.com
Grupo La Veloz Cooperativa,C/ Asalto 69,50002,+34 976295800,,41.6497222,-0.873022,Zaragoza,Spain,recicleta@grupolaveloz.com
Metro Gnome Music LLC,4044 E. Speedway Blvd.,85712,+1 5203203780,,32.235875,-110.9060084,Tucson,United States,metrognomemusic@aol.com
Elmy Cycles,86-88 St Helens Street,IP4 2LB,+44 1473255247,,52.056392,1.1648943,Ipswich,United Kingdom,info@elmycycles.co.uk
Jim’s Bicycle Shop,8015 Plainfield Road,45236,+1 5137931163,,39.2077633,-84.3991502,Cincinnati,United States,inquire@jimsbicycleshop.com
Urkai Inc,860 Cumberland Ave,L7N 3V1,+1 8002200150,,43.3437649,-79.7934128,Burlington,Canada,abowen@urkai.com
Kindred Cycles,2515 Penn Avenue,15222,+1 4124712656,,40.454386,-79.979636,Pittsburgh,United States,kindredcycles@gmail.com
Two Fold Bicycle Shop,3028 Dr MLK Jr St N,33704,+1 7273468452,,27.7713957,-82.6427597,St Petersburg,United States,twofold@labbikes.com
サイクルハウスしぶや お花茶屋,東京都葛飾区お花茶屋1－26－2,1－26－2,03-5650-2510,,35.749619,139.839901,東京都,Japan,toiawase@cycleshibuya.com
Green Cycle Station,神奈川県横浜市中区山下町24-8 シティコート山下公園1F,230-0074,045-663-6263,,35.44599,139.646345,横浜市,Japan,contact@gcs-yokohama.com
Galeries du cycle,Quai de la boverie 78,4020,+32 42236632,,50.6316389,5.576958,Liege,Belgium,info@galeriesducycle.com
VeloDroom,Van Arteveldestraat 41,1000,+32 25138199,,50.8482738,4.3462412,Brussel,Belgium,info@velodroom.net
Dejonckheere NV,Kerkstraat 26-28,8400,+32 59508721,,51.2311009,2.9194307,Oostende,Belgium,info@pro-winner.be
Vlerick Fietsen,Nieuwstraat 16,9840,+32 92824709,,50.985472,3.644263,De Pinte,Belgium,info@vlerickfietsen.be
AVA Hendrickx fietsen,Minderbroederstraat 6,1500,+32 23586225,,50.7351606,4.2336183,Halle,Belgium,postbus@fietsenhendrickx.be
Fietsen Wanneyn bvba,Koolkerkse Steenweg 83A,8000,+32 50355508,,51.2253556,3.2358447,Brugge,Belgium,info@wanneyn.be
Tromm Tweewielers,Europaplein 45,1078 GV,+31 206642099,,52.3430695,4.8922045,Amsterdam,Netherlands,info@tromm.nl
Chamizo Fietsen bvba.,Liersesteenweg 88,2860,+32 15211899,,51.0556509,4.4800957,Sint-Katelijne-Waver,Belgium,info@chamizo.be
Bikeshop Amersfoort,Leusderweg 92-94,3817 KC,+31 334651321,,52.1454948,5.382166,Amersfoort,Netherlands,info@bikeshop.nl
Rijwielstalling: Aon de Stasie,Stationsplein 26,6221BT,+31 433211100,,50.8497433,5.7048194,Maastricht,Netherlands,info@aondestasie.nl
Thiers2Wielers,Karnemelksloot 77,2806 BC,+31 182513520,,52.0100384,4.718186,Gouda,Netherlands,info@thiers2wielers.nl
Bruinewoud rijwielen,Tooropstraat 3,6521 NH,+31 243221771,,51.837328,5.8772413,Nijmegen,Netherlands,basbruinewoud@live.nl
H & B Tweewielers,Herenstraat 82-86,2313 AM,+31 715122988,,52.1508905,4.4887749,Leiden,Netherlands,henb-tweewielers@hetnet.nl
Jansen Cronje bv.,Generaal Cronjestraat 160,2021 JN,+31 235256125,,52.3962215,4.642869,Haarlem,Netherlands,mail@jansencronje.nl
Bike Emotion,Chaussee de Drogenbos 210,1180,+32 23764182,,50.7873987,4.329207,Brussel-Ukkel,Belgium,store@bikeemotion.be
Excellerbikes bvba,Philipstockstraat 43,8000,+32 50706812,,51.2096079,3.2269572,Brugge,Belgium,ride@excellerbikes.com
Fietsenwinkel Ten Tusscher B.V,Oldenzaalsestraat 340,7523 AJ,+31 534358219,,52.232057,6.9045482,Enschede,Netherlands,marcel@tentusscher.nl
Vanneuville Wielersport Bvba,Albert 1 laan 107,8670,+32 58517105,,51.133171,2.6744869,Oostduinkerke,Belgium,info@vanneuvillewielersport.be
Kemper Fietsen,Waldeck Pyrmontkade 454,2518 KG,+31 703459696,,52.0803185,4.2902431,Den Haag,Netherlands,info@kemperfietsen.nl
Van Wijk fiets en onderhoud,Willemsparkweg 181,1071 HA,+31 206622380,,52.3557924,4.8702815,Amsterdam,Netherlands,fietsenonderhoud@gmail.com
Velofixer Beurs,Anspachlaan 157,1000,+32 23190220,,50.8473014,4.3492543,Brussels,Belgium,info@velofixer.com
SRL SAITTA,Avenue de la Plante,5000,+32 81220314,,50.4556138,4.8620449,Namur,Belgium,info@saitta.be
Daan fietsen & toebehoren,Brusselsesteenweg 232,9280,+32 52415882,,50.9871675,4.1373531,Lebbeke,Belgium,daanfietsen@gmail.com
Het Zandrijwielen,Everjachtstraat 53,5042wg,+31 135900015,,51.5730462,5.0473955,Tilburg,Netherlands,info@hetzandrijwielen.nl
Fietsen De Geus BV,Marnixplaats 4,2000,+32 32381712,,51.2109373,4.3975019,Antwerpen,Belgium,antwerpen@fietsendegeus.be
Gino Carts & Bikes,Frere-Orbanstraat 46,8400,+32 59438164,,51.2206103,2.910281,Oostende,Belgium,info@ginocarts.be
KM10,10 avenue. de la Foresterie,1170,+32 26726610,,50.7918073,4.4200345,Watermael Boitsfort,Belgium,km10@km10.be
Fudges CycleStore Paddington,564-566 Harrow Road Paddington,W9 3QH,+44 2089695991,,51.5262205,-0.2050952,London,United Kingdom,paddington@fudgescyclestore.com
Balfe’s Bikes,"Unit 2 Camino Park ,James Watt Way",RH10 9TZ,+44 2077324170,,51.46220694,-0.069583495,Crawley,United Kingdom,hello@balfesbikes.co.uk
Electric & Folding Bikes Northwest,4810 17th NW,WA 98107,+1 2065474621,,47.6640825,-122.3785976,Seattle,United States,info@ebikesnw.com
Velonaut,Rommelaerelaan 49,1020,+32 24780901,,50.8892912,4.3345658,Brussels-Laken,Belgium,info@velonaut.be
Mountain Mania Cycles Didcot / Tring,62 Wantage Road,OX11 0BY,+44 1235759366,,51.6053707,-1.2572383,Didcot,United Kingdom,sales@mountainmaniacycles.co.uk
Freedom Folding Bikes,3119 28th Street,80301,+1 7205883653,,40.0313939,-105.2585489,Boulder ,United States,cwankeny@gmail.com
Sztrato Kft,Vázsonyi út 3,8230,+36 209357700,,46.9599086,17.8623909,Balatonfüred,Hungary,process@brompton.hu
NYC Velo - Hell's Kitchen,66 2nd Avenue,10003,+1 2125827949,,40.7625524,-73.9967367,New York,United States,andrew@nycvelo.com
Arriving By Bike LLC,2705 Williamette Street,97405,+1 5414845410,,44.0276355,-123.0911269,Eugene,United States,brompton@arrivingbybike.com
Comrade Cycles LLC,1908 West Chicago Ave,60622,+1 7732922522,,41.896221,-87.67504,Chicago,United States,brompton@comradecycles.com
Leisure Lakes Bikes - Daventry,"Abbey Retail Park, South Way",NN11 4GL,+44 1327317158,,52.25529,-1.15429,Daventry,United Kingdom,sales@leisurelakesbikes.com
Leisure Lakes Bikes - Lancaster,103 Penny Street,LA1 1XN,+44 1524844389,,54.0452775,-2.8015285,Lancaster,United Kingdom,sales@leisurelakesbikes.com
Leisure Lakes Bikes - Nottingham,168 Wilsthorpe Road,DE72 3AG,+44 1332872947,,52.8976567,-1.3069674,Breaston,United Kingdom,sales@leisurelakesbikes.com
Rijwielshop Zwaan Rotterdam B.V.,Weena 703 - 707,3013 AM,+31 104126220,,51.9228324,4.4680428,Rotterdam,Netherlands,dave@czwaan.nl
Southdowns Bikes - Goring,301 Goring Road,BN12 4NX,+44 1903244644,,50.8120551,-0.4214397,Worthing,United Kingdom,online@southdownsbikes.com
Berkshire Cycle Co. - WOODLEY STORE,186 Loddon Bridge Road,RG5 4BS,+44 1189695776,,51.4470972,-0.8982078,Reading,United Kingdom,sales.woodley@berkshirebikes.co.uk
La Roue Libre S.A.,Rue de Herve 83,4651,+32 87679095,,50.6465475,5.8104938,Battice,Belgium,infos@larouelibre.be
Jupiter Fiets & Fitness bv,Plantin en Moretuslei 30,2018,+32 32306721,,51.2103306,4.419827,Antwerpen,Belgium,info@jupiternv.be
Zutphen - Profile Bleumink,Spittaalstraat 34,7201 EE,+31 575519526,,52.142736,6.1960584,Zutphen,Netherlands,zutphen@profilebleumink.nl
Fietsen Godefroot,Xavier De Cocklaan 36,9831,+32 92825496,,50.9999539,3.6120966,Sint Martens Latem,Belgium,peter@fietsengodefroot.be
Peerenboom Fietsen,Lawickse Allee 5,6701 AN,+31 317412103,,51.968585,5.6646475,Wageningen,Netherlands,info@peerenboomfietsen.nl
East St T/as HOOPS Walton,Seven Stars House,GU9 7TP,+44 1252723888,,51.2171137,-0.7954223,Farnham,United Kingdom,walton@eaststcycles.com
Lobikes,Antwerpsesteenweg 58,9080,+32 93917751,,51.090865,3.8150612,Lochristi,Belgium,info@lobikes.be
Esports Mariné S.C.P.,Ps/ Sant Joan Baptista la Salle 15,43850,+34 977361739,,41.0699,1.0556,Cambrils,Spain,marinebicicletes@hotmail.es
J E James Cycles Sheffield,347 - 361 Bramall Lane,S2 4RN,+44 1142923103,,53.3668941,-1.4708194,Sheffield,United Kingdom,sheffield@jejamescycles.com
CYKLOSPECIALITY - PRAHA,Nuselska 35,140 00,537 021 012,,50.062435,14.4450658,Praha 4,Czech Republic,
CYKLOSPECIALITY - BRNO,Vaclavska 4,603 00,+420 537 021 012,,49.1887737,16.5975934,Brno,Czech Republic,
CYKLOSPECIALITY - BRATISLAVA,Odborarske namestie 1,-,0948 975 175,,48.1513768,17.1191125,Bratislava,Czech Republic,
Armaroli,Via Mazzini 59/2,40137,+39 3285372299,,44.4873986,11.3642437,Bologna,Italy,info@armaroli.bike
FLORENCE BY BIKE,Via San Zanobi 54r,50129,+39 055488992,,43.77945,11.25567,Firenze,Italy,info@florencebybike.it
Collalti Bici,Via del Pellegrino 82,186,+39 0668801084,,41.89699,12.47019,Roma,Italy,collaltibici@libero.it
The Bike Shed Outta Town,"Honiton Road, Sowton Industrial estate",EX1 3RU,+44 1392927925,,51.0781599,-4.058338,Exeter,United Kingdom,ex1@bikesheduk.com
The Bike Shed Exeter,163 Fore Street,EX4 3AT,+44 1392426191,,50.718412,-3.533899,Exeter,United Kingdom,web@bikesheduk.com
Ebikes Hawaii - Honolulu,3318 Campbell Ave,96815,+1 8087841055,,21.2773896,-157.8131878,Honolulu,United States,johnebikeshawaii@gmail.com
East St Cycles Walton,12-14 Brassey House,KT12 1QD,+44 1932221424,,51.38441037,-0.419127345,Walton-On-Thames,United Kingdom,walton@eaststcycles.com
Becykel - Ciclismo Urbano,1194 Avenida Italia,7501297,+56 985003377,,-33.445755,-70.625131,Santiago,Chile,info@becykel.cl
Hargroves Cycles - Chichester,106-108 The Hornet,PO19 7JR,+44 1243537337,,50.83761,-0.774936,Chichester,United Kingdom,chimanager@hargrovescycles.co.uk
Fudges CycleStore Epsom,21-23 Upper High Street,KT17 4QY,+44 1372744116,,51.3343362,-0.2625914,Epsom,United Kingdom,epsom@fudgescyclestore.com
Fietspaleis,Nieuwstraat 8,9100,+32 37761645,,51.1630676,4.1381444,Sint-Niklaas,Belgium,fietspaleis@icloud.com
Cycle Heaven York Station,"York Railway Station, Station Road",YO24 1AY,01904 636578,,53.9576762,-1.0925836,York,United Kingdom,yorkstation@cycle-heaven.co.uk
Firth & Wilson Transport Cycles,1315 North Howard St,19122,+1 2154254672,,39.970941,-75.13649,Philadelphia,United States,info@transportcycle.com
Balfe's Bikes - Streatham Hill,87 Streatham Hill,SW2 4UB,+44 2086711984,,51.43917,-0.12591,London,United Kingdom,streatham@balfesbikes.co.uk
Byman Cykler,Øster Farimagsgade 32,2100,+45 35425156,,55.691656,12.5766201,Copenhagen,Denmark,dan@byman.dk
BromiBike Kft,Vázsonyi út 3,8230,+36 209357700,,46.9600116,17.8618433,Balatonfured,Hungary,info@brompton.hu
Het Verzet Bvba,Nieuwstraat 41,9800,+32 93802720,,50.983395,3.5631622,Deinze,Belgium,info@hetverzet.be
LIFE with BICYCLE Daikanyama,東京都渋谷区恵比寿西1－31－12 FLEG代官山1Ｆ,150-0021,03-4283-1117,,35.647785,139.704912,Tokyo,Japan,shop@lb-daikanyama.jp
Les Cyclistes Branchés,47 av de Versailles,75016,+33 980856204,,48.8484275,2.275097,Paris,France,contact@les-cyclistes-branches.com
Cyclable Paris 10 Les petits vélos,50 Quai de Jemmapes,75010,+33 148048491,,48.8701313,2.3668549,Paris,France,paris10@cyclable.com
Cyclable Paris 12,120 Boulevard Diderot,75012,+33 972457801,,48.8471937,2.3874185,Paris,France,paris12@cyclable.com
Cyclable Paris 19,68 Avenue Jean Jaurès,75019,+33 984099342,,48.8843611,2.3768988,Paris,France,paris19@cyclable.com
L’échappée Belle,71 rue de nanterre,92600,+33 171047830,,48.910291,2.287601,Asnieres,France,contact@lechappeebelle.bike
Cyclable Clermont Ferrand,76 boulevard François Mitterrand,63000,+33 983335570,,45.771479,3.0844969,Clermont-Ferrand,France,clermont-fd@cyclable.com
Cyclable Orléans,12 Rue Royale,45000,+33 238427628,,47.8986932,1.9044397,Orleans,France,orleans@cyclable.com
Cyclable Tours Tours'N Cycles,20 Rue Gambetta,37000,+33 247611893,,47.391902,0.6865832,Tours,France,tours@cyclable.com
Cyclable Nantes,25 Quai de Versailles,44000,+33 972631071,,47.2242977,-1.5539021,Nantes,France,nantes@cyclable.com
Cyclable Rennes Montgermont,Boulevard d'Emeraude,35760,+33 299452673,,48.15605,-1.70828,Montgermont,France,rennes@cyclable.com
Cyclable La Rochelle,8 bis Rue Sénac de Meilhan,17000,+33 983081725,,46.1530478,-1.1527128,La Rochelle,France,larochelle@cyclable.com
Cyclable Rouen (ex Cycles Pierre et Simon),16 bis Rue Alsace Lorraine,76000,+33 984222958,,49.4389384,1.0984701,Rouen,France,rouen@cyclable.com
Cyclable Lille,11-13 Rue des Arts,59800,+33 320741758,,50.6381277,3.066565,Lille,France,lille@cyclable.com
Cyclable Dijon,26 Avenue du Drapeau,21000,+33 380732303,,47.33169,5.04417,Dijon,France,dijon@cyclable.com
Cyclable Annecy Marvin bike,6 Rue de Bonlieu,74000,+33 456739771,,45.9033723,6.1286198,Annecy,France,annecy@cyclable.com
Cyclable Lyon 4,12 Rue du Mail,69004,+33 981294418,,45.7769988,4.8332256,LYON,France,lyon04@cyclable.com
Cyclable Grenoble,83 rue Mallifaud,38100,+33 456854346,,45.1811245,5.7263339,GRENOBLE,France,grenoble@cyclable.com
Lyon Cycle Chic,74 rue Salomon Reinach,69007,+33 472703461,,45.7494956,4.8440196,Lyon,France,info@lyoncyclechic.com
Velonaute Lyon sarl,35 rue Tronchet,69006,+33 437488917,,45.7699202,4.847346,Lyon,France,tetedor@velonaute.com
Cyclable Castelnau,3 Place Charles de Gaulle,34170,+33 467100777,,43.6160108,3.8755907,Castelnau-le-Lez,France,montpellier@cyclable.com
Esprit Cycles Bordeaux,27 rue Docteur Charles Nancel Penard,33000,+33 556587834,,44.8394409,-0.58155,Bordeaux,France,ec.bordeaux@gmail.com
Just Ride LA,1626 S. Hill Street,90015,+1 2137456783,,34.0340409,-118.2647776,Los Angeles,United States,info@justridela.com
The Bicycle Planet,340 Robbins Lane,11791,+1 5163644434,,40.79766,-73.51577,Syosset,United States,info@thebicycleplanet.com
Cosmic Bikes Inc.,4641 N. Milwaukee Ave.,60630,+1 7739304076,,41.96511,-87.75804,Chicago,United States,hello@cosmicbikes.com
Cycle Junxion,299 North End Road,W14 9NS,+44 2034757778,,51.4859407,-0.2025735,London,United Kingdom,sales@cyclejunxion.co.uk
Oak City Cycling Project,707 N Person St,27604,+1 9194360527,,35.78937,-78.63478,Raleigh,United States,squirrely@oakcitycycling.com
Carytown Bicycle Company,3112 W. Cary Street,23220,+1 8044402453,,37.55325,-77.48061,Richmond,United States,bikes@carytownbikes.com
Bicicletas El Ingles S.L,Calle del Ave María 3 Local Derecho,28012,+34 910180580,,40.41199,-3.70014,Madrid,Spain,info@elingles.com
南風自転車店,札幌市豊平区豊平4条7－3－14,062-0904,011-831-8009,,43.049287,141.374168,札幌市,Japan,no_reply@brompton.com
サイクルショップ ヨシダ,福島県福島市上浜町1-18,960-8134,0245-22-2738,,37.75398,140.473843,960-8134,Japan,no-reply@brompton.com
Richmond Cycles,Richmond Rd,TW1 2EF,+44 2088924372,,51.543644,-0.0553464,London,United Kingdom,shop@richmondcycles.co.uk
"Summit Bicycles, Inc.",1031 California Drive,94010,+1 6503438483,,37.58623,-122.36105,Burlingame,United States,service+losgatos@summitbicycles.com
サイクルショップ　イマイ,茨城県日立市鮎川町6-4-22,316-0036,0294-33-0468,,36.569665,140.635181,日立市,Japan,no_reply@brompton.co.uk
サイクルセンター　サンワ,兵庫県尼崎市昭和通8-290,660-0881,06-6412-3802,,34.723668,135.404849,Amagasaki,Japan,no_reply@brompton.co.uk
BICI TERMINI,大阪府大阪市中央区上町Ｃ－７－１Ｆ,540-0005,06-6761-1732,,34.677584,135.520675,Osaka,Japan,no_reply@brompton.co.uk
LORO CYCLE WORKS,"大阪府大阪市中央区東高麗橋４-７, ミュー高麗橋1F",540-0039,06-4793-1707,,34.687752,135.510403,Osaka,Japan,no_reply@brompton.co.uk
侍サイクル,滋賀県彦根市中央町4-41,522-0063,0749-26-3626,,35.269388,136.25389,Hikone,Japan,no_reply@brompton.co.uk
カミハギサイクル　小牧本店,愛知県小牧市小木東1－25,485-0059,0568-73-8311,,35.282128,136.904994,Komaki,Japan,no_reply@brompton.co.uk
ＧＯ　ＣＹＣＬＥ,愛知県名古屋市中川区福住町３－４,454-0802,052-351-7081,,35.15754,136.88187,Nagoya,Japan,no_reply@brompton.co.uk
Y's Road・名古屋,愛知県名古屋市中区錦２－２－１３ 名古屋センタービル　1F,460-0003 ,052-220-3977,,35.172536,136.899124,Nagoya,Japan,no_reply@brompton.co.uk
じてんしゃひろば　遊,愛知県小牧市郷中１-１９７,485-0033,0568-75-5802,,35.278043,136.91769,Komaki,Japan,no_reply@brompton.co.uk
バイシクル　わたなべ　カネボウ通り店,静岡県静岡市駿河区曲金7-8-35,422-8006,054-285-8845,,34.983381,138.416962,Suruga Ward,Japan,no_reply@brompton.co.uk
スポーツサイクル サカモト,新潟県三条市島田１－2－14,955-0842,0256-32-5348,,37.627988,138.948441,Sanjo,Japan,no_reply@brompton.co.uk
Y's Road・横浜,神奈川県横浜市西区桜木町6－31 1～3F,220-0021,045-342-4587,,35.456217,139.625907,Yokohama,Japan,no_reply@brompton.co.uk
東急ハンズ　渋谷店,東京都渋谷区宇田川町12－18,150-0042,03-5489-5111,,35.66208,139.697873,Shibuya,Japan,no_reply@brompton.co.uk
believe,千葉県浦安市猫実5－1－37,279-0004,047-390-5577,,35.66383,139.891715,279-0004,Japan,no_reply@brompton.com
Y's Road・船橋,千葉県船橋市浜町2－2－7 ビビット南船橋3F,273-0012,047-390-5577,,35.687345,139.993142,273-0012,Japan,no_reply@brompton.com
Y's Road・新宿本館,東京都新宿区新宿2－19－1 BYGSビルB1F,160-0022,03-3350-1288,,35.691235,139.707719,Shinjuku,Japan,no_reply@brompton.co.uk
Y's Road・府中多摩川,東京都府中市四谷5－42－3,183-0035,042-352-3308,,35.663981,139.438468,Fuchu,Japan,no_reply@brompton.co.uk
Y's Road・上野本館,"東京都台東区上野3－16－3 上野鈴木ビル1Ｆ,2F",110-0005,03-3836-6168,,35.705329,139.772337,台東区,Japan,no_reply@brompton.co.uk
LORO SLOW SPOT,東京都中央区日本橋室町１-９-９新室町ビル１Ｆ,103-0022,03-3231-5112,,35.685025,139.77599,Chuo,Japan,no_reply@brompton.co.uk
LORO SETAGAYA,東京都世田谷区上用賀3－7－8,158-0098,03-3700-1765,,35.631608,139.628851,Setagaya,Japan,no_reply@brompton.co.uk
High Nelly Bikes,Kilduff Pallasgreen,V94 DT85,+353 61388786,,52.55936,-8.35457,Co. Limerick,"Ireland, Republic of",info@highnelly.ie
Leisure Lakes Preston Hub,Butler Street,PR1 8BN,+44 1772200944,,53.763201,-2.70309,Preston,United Kingdom,sales@leisurelakesbikes.com
Bicycles NYC,1400 3rd Avenue,10075,+1 2127942929,,40.77482,-73.95731,New York,United States,info@bicyclesnyc.com
STEIL BV,Gentbruggeplein 1,9050,+32 93118866,,51.0445478,3.7589229,Gentbrugge,Belgium,tim@steil.gent
Bike Center Sterrebeek Zaventem - Lier,Lintsesteenweg 5c,2500,+32 34804640,,51.12491,4.551403,Lier,Belgium,tim@bikecenter.be
Heales Cycles,477 Hale End Road,E4 9PT,+44 2085271592,,51.6067882,0.0011054,London,United Kingdom,info@healescycles.co.uk
The Bike Center,1555 2nd Street,90401,+1 2133775688,,34.0128933,-118.4944726,Santa Monica,United States,info@thebikecenter.com
Mamachari,163 Forest Rd,E17 6HE,+44 2085312585,,51.5877854,-0.036134,London,United Kingdom,shop@mamachari.co.uk
Cycle Life Shop KOG,大阪府東大阪市西石切　7－6－7　オーク新石切　1Ｆ,579-8013,072-988-0113,,34.61808,135.488188,Higashiosaka,Japan,no-email@brompton.com
Landry's Bicycles,790 Worcester Street,1760,+1 5086551990,,42.29989,-71.35678,Natick,United States,boston@landrys.com
Landry's Bicycles,1048 Commonwealth Avenue,2215,+1 5086551990,,42.3516971,-71.1225283,Boston,United States,boston@landrys.com
The Bike Center ,3702 So. Robertson Blvd,90232,+1 3106568500,,34.0279481,-118.3898606,Culver City,United States,info@thebikecenter.com
Tip Top Bike Shop,4800 Telegraph Avenue,94609,+1 5104444148,,37.83486,-122.26255,Oakland,United States,top@tiptopbikeshop.com
West Point Cycles - Kerrisdale,6069 West Boulevard,V6M 3X2,+01 6042637587,,49.231165,-123.1557112,Vancouver,Canada,jessicab@westpointcycles.com
Alameda Bicycle,1522 Park Street,94501,+1 5105220070,,37.76598,-122.24113,Alameda,United States,info@alamedabicycle.com
Worcester Cycle Centre,Main Road Hallow,WR2 6LD,+44 1905611123,,52.2234727,-2.2540481,Worcester,United Kingdom,info@worcestercyclecentre.com
Holland's Bicycles,977 Orange Ave.,92118,+1 6194353153,,32.68589,-117.17939,Coronado,United States,dale@hollandsbicycles.com
Evans Cycles Birmingham,House of Fraser Corporation Street,B2 5JS,+44 3439092626,,52.480719,-1.896509,Birmingham,United Kingdom,manager.birminghamev@evanscycles.com
Evans Cycles Manchester Chill Factore,Chill Factore Trafford Way,M41 7JA,+44 3439092107,,53.4684661,-2.3644685,Manchester,United Kingdom,manager.traffordev@evanscycles.com
Evans Cycles Lakeside,22 Junction Shopping Park,RM20 3HH,+44 3439092098,,51.48065,0.28644,Lakeside,United Kingdom,manager.lakesideev@evanscycles.com
Evans Cycles Clapham,Unit 2 65 Clapham High Street,SW4 7TG,+44 3439092081,,51.4633114,-0.1353677,London,United Kingdom,manager.claphamev@evanscycles.com
Evans Cycles Glasgow Bath St,19 Bath St.,G2 1HY,+44 3439092089,,55.86432,-4.26058,Glasgow,United Kingdom,manager.glasgowev@evanscycles.com
J.C. Lind Bike Co.,1311 N. Wells Street,60610,+1 3126431670,,41.90605,-87.63432,Chicago,United States,jon@jclindbikes.com
Broekhuis Fietsen Limmen,Rijksweg 137,1906 BG,+31 725051239,,52.5777284,4.6955891,Limmen,Netherlands,winkel@krooneliefting.nl
Ciclos la Salud S.C.P,C/ alfonso XIII 111 L2,8912,+34 933887181,,41.44254,2.23437,Badalona,Spain,info@cicloslasalud.com
Bicigrino S.L.,C/ Aigua Viva 4 bajo,17310,+34 972908727,,41.7049,2.84284,Lloret de Mar,Spain,tomas@bicigrino.com
Distrito Bikes S.L.,Av/ Dr. Gregorio Marañon 18,3133,+34 966706811,,37.977343,-0.6905127,Torrevieja,Spain,info@ciclosacequion.com
Matusalen Bikes,"C/ Torrebadal, 18",8911,+34 667627221,,41.4520349,2.2550569,Badalona,Spain,matusalenbikes@gmail.com
CON2PEDALES SDAD COOP,C/ Ceballos 5,30030,+34 868914764,,37.9829494,-1.1271889,Murcia,Spain,c2p@con2pedales.net
VAIC - La vida en bici,C. Valldoreix 72,8172,+34 936754570,,41.469844,2.0806389,Sant Cugat del Vallès,Spain,administracio@vaic.com
Brompton Junction Valencia,Calle Cirilo Amoros 68,46004,+34 963205668,,39.4688769,-0.3674556,Valencia,Spain,info@bromptonjunctionvlc.com
DOYOUBIKE,Avd/ Del Puerto 141,46022,+34 963374024,,39.4641589,-0.3458456,Valencia,Spain,info@doyoubike.com
DOYOUBIKE,Calle Mar - 14,46003,+34 963155551,,39.4738525,-0.3739641,Valencia,Spain,info@doyoubike.com
Velo Culture,"Rua Álvaro Castelões, loja 46A",4450-039,+351 222424790,,41.1488341,-8.6263817,Matosinhos,Portugal,info@veloculture.pt
Bike Tech S.L,Calle Terol 30,8012,+34 932130255,,41.4033494,2.158716,Barcelona,Spain,koos@bike-tech.com
Mammoth Las Rozas,C/ Dublin 35C,28232,+34 916341788,,40.5044799,-3.891793,Las Rozas,Spain,compras.direccion@mammothbikes.com
Mammoth Mostoles,C/ Fragua 2,28933,+34 916140910,,40.34133,-3.86291,Mostoles,Spain,compras.direccion@mammothbikes.com
Mammoth Alcala de Henares,Rotonda Pitagoras 1,28806,+34 918797587,,40.491527,-3.386071,Alcalá de Henares,Spain,compras.direccion@mammothbikes.com
Mammoth Arganda del Rey,Avenida de Madrid 25 Nave A-6,28500,+34 913093259,,40.30517,-3.45925,Arganda del Rey,Spain,compras.direccion@mammothbikes.com
Baker St Bikes,7-8 York Place,BN1 4UG,+44 1273675754,,50.8283281,-0.1356526,Brighton,United Kingdom,info@bakerstbikes.co.uk
Evans Cycles London Bridge,6 Tooley St,SE1 2SY,+44 3439092103,,51.5062601,-0.0900111,London,United Kingdom,manager.londonbridgeev@evanscycles.com
Evans Cycles Brighton,4 Air St,BN1 3FB,+44 3439092070,,50.8241927,-0.1435878,Brighton,United Kingdom,manager.brightonev@evanscycles.com
Evans Cycles Cambridge,Unit 14 The Grafton Centre,CB1 1PS,+44 3439092636,,52.20708,0.13345,Cambridge,United Kingdom,manager.cambridgegraftev@evanscycles.com
Evans Cycles Edinburgh,1A Exchange Place,EH3 8BL,+44 3439092085,,55.94435,-3.2087877,Edinburgh,United Kingdom,manager.edinburghev@evanscycles.com
Evans Cycles St Pauls,1 Farringdon St,EC4M 7LD,+44 3439092120,,51.5145297,-0.1063947,London,United Kingdom,manager.stpaulsev@evanscycles.com
Evans Cycles Wimbledon,6-12 Gladstone Rd,SW19 1QT,+44 3439092125,,51.4190152,-0.2045579,London,United Kingdom,manager.wimbledonev@evanscycles.com
Evans Cycles Reading,Mill Lane Roundabout (Below Premier Inn),RG1 2HN,+44 3439092117,,51.42947,-0.90149,Reading,United Kingdom,manager.readingev@evanscycles.com
Evans Cycles Guildford,3 Woodbridge Meadows,GU1 1BD,+44 3439092090,,51.2474945,-0.5854216,Guildford,United Kingdom,manager.guildfordtev@evanscycles.com
Roy's Sheepshead Cycle,2679 Coney Island Ave.,11235,+1 7186469430,,40.59124,-73.96045,Brooklyn,United States,roysbikes@gmail.com
CYKLOSPECIALITY - HRADEC KRALOVE,Safarikova 514 ,500 02,+420 737 828 761,,50.2105511,15.8249666,Hradec Kralove ,Czech Republic,
Start Cycles,35-37 Market St,NE1 6JE,+44 1912614191,,54.972647,-1.6140082,Newcastle upon Tyne,United Kingdom,customerservices@startfitness.co.uk
Bo Vélo,3 Cours Olivier de Clisson,44000,+33 240751989,,47.213191,-1.554222,Nantes,France,contact@bovelonantes.com
Cyclable Boulogne Paris Cyclable,122 Route de la Reine,92100,+33 972606557,,48.8403499,2.2347105,Boulogne-Billancourt,France,boulogne92@cyclable.com
Cyclable Caen,32 Place du 36ème Régiment d'Infanterie,14000,+33 231833415,,49.1775049,-0.3558111,Caen,France,caen@cyclable.com
Cyclable Chambéry,256 Rue de la République,73000,+33 458140754,,45.5639022,5.925566,Chambéry,France,chambery@cyclable.com
Cyclable La Garenne Colombes,104 bis avenue du Général De Gaulle,92250,+33 157688575,,48.9066546,2.2556843,La Garenne-Colombes,France,la-garenne-colombes@cyclable.com
Cyclable Lyon 6,54 Avenue Maréchal Foch,69006,+33 981254647,,45.7697778,4.8412334,LYON,France,lyon6@cyclable.com
Cyclable Lyon 7,16 Avenue Jean Jaurès,69007,+33 983450706,,45.7526837,4.8460149,LYON,France,lyon7@cyclable.com
Cyclable Marseille Vélodrome,13 Boulevard Rabatau,13008,+33 972445103,,43.2735193,5.3924418,Marseille,France,marseille@cyclable.com
Cyclable Montpellier Sud,292 Avenue Théroigne de Méricourt,34000,+33 467828831,,43.597577,3.899485,Montpellier,France,montpellier-sud@cyclable.com
Cyclable Nice Mode cyclable,31 Avenue de la République,6300,+33 981204262,,43.7029102,7.2812319,Nice,France,nice@cyclable.com
Cyclable Paris 15,135 Avenue Emile Zola,75015,+33 972585324,,48.8471304,2.2939484,Paris,France,paris15@cyclable.com
Cyclable Poitiers,12 Ter Boulevard du Pont Achard,86000,+33 972577768,,46.581178,0.3325382,Grand-Poitiers,France,poitiers@cyclable.com
Cyclable Rennes Spad Alternative,65 Avenue Aristide Briand,35000,+33 299384608,,48.1104209,-1.664832,RENNES,France,rennes-spad@cyclable.com
Cyclable RueilMalmaison E.T.'S Bike,5 avenue Gabriel Péri,92500,+33 950136617,,48.8829672,2.1883237,Rueil-Malmaison,France,rueil-malmaison@cyclable.com
Cyclable Strasbourg Etoile,15 route de Vienne,67000,+33 388344753,,48.57422,7.7551,Strasbourg,France,strasbourg-etoile@cyclable.com
Cyclable Toulouse Ouest,1 allee des Corbieres,31770,+33 561612493,,43.5897041,1.359414,COLOMIERS,France,toulouse.ouest@cyclable.com
Universal Cycles,12330 SW Walker Rd,97005,+1 5039436156,,45.52246,-122.64292,Beaverton,United States,sales@universalcycles.com
MecaService,Avenue des vallées 163,1341,+32 10612386,,50.65392,4.54993,Ottignies-Louvain-la-Neuve,Belgium,info@mecaservice.be
Brompton Junction NYC,287 Bleecker Street,10014,+1 9179652845,,40.73205,-74.00337,New York,United States,ny@bromptonjunction.com
One Fine Day - Bangkok,"27-2 Lasan 23 Sukumvit, 105 Bang Na",10260,+66 27444077,,13.66702706,100.6133986,Bangkok,Thailand,onefinedaybicycle@gmail.com
Jour de Vélo Bastille,41 rue de Citeaux,75012,+33 954312944,,48.8497447,2.3810802,Paris,France,olivier@jourdevelo.fr
Holland Bikes Paris 05, 17 rue des écoles,75005,+33 171763253,,48.8478135,2.3511126,Paris,France,paris05@hollandbikes.com
Holland Bikes Paris 15,79 boulevard Lefebvre,75015,+33 142504240,,48.8290043,2.3004728,Paris,France,paris15@hollandbikes.com
Mad Dogs & Englishmen,SW Corner of Ocean Ave & Mission Street,93921,+1 8312507687,,36.55509,-121.92092,Carmel-by-the-Sea,United States,info@maddogsandenglishmen.com
Fridhems Cykel,Bredgatan 32,22221,+46 40260335,,55.7089733,13.1931672,Lund,Sweden,bredgatan.lund@fridhemscykel.se
Velorution Hackney,281 Mare St,E8 1GR,+44 2071485574,,51.5443795,-0.0555277,London,United Kingdom,hackney@velorution.com
Velorution Islington,123 Essex Road,N1 2SN,+44 71485573,,51.5394576,-0.1000218,London,United Kingdom,islington@velorution.com
Bike Republic Hasselt,Herkenrodesingel 85,3500,+32 1152125,,50.9425158,5.3283048,Hasselt,Belgium,hasselt@bikerepublic.be
Bike Republic XL Leuven,Kareelveld 8A,3000,+32 16679159,,50.8903693,4.6943666,Leuven,Belgium,leuven@bikerepublic.be
Bike Republic Antwerpen,Vlaamse Kaai 20,2000,+21 33376698,,51.2110432,4.3923465,Antwerpen,Belgium,Antwerpen@bikerepublic.be
Bike Republic Boortmeerbeek,Leuvensesteenweg 356,3190,+32 15709127,,50.9670808,4.5745756,Boortmeerbeek,Belgium,boortmeerbeek@bikerepublic.be
Bike Republic Roeselare,Westlaan 221,8800,+32 51679068,,50.9432089,3.113445,Roeselare,Belgium,roeselare@bikerepublic.be
Bike Republic Wijnegem,Turnhoutsebaan 325,2110,+32 33536830,,51.227142,4.5206474,Wijnegem,Belgium,wijnegem@bikerepublic.be
Bike Republic Merksem,Bredabaan 809,2170,+32 33313138,,51.2515826,4.4585766,Merksem,Belgium,merksem@bikerepublic.be
Bike Republic Boechout,Provinciesteenweg 496,2530,+32 34552624,,51.1594684,4.510443,Boechout,Belgium,boechout@bikerepublic.be
Bike Republic Herentals,Hemeldonk 13,2200,+32 14219586,,51.1740083,4.8184459,Herentals,Belgium,herentals@bikerepublic.be
Cycle Solutions Swansea Store,34 Uplands Crescent,SA2 0PG,+44 1792472612,,51.6182959,-3.9684225,Swansea,United Kingdom,
Cyclable Paris 14,122 Boulevard Brune,75014,+33 972655995,,48.823778,2.3221539,Paris,France,paris14@cyclable.com
Cyclable Bayonne,47 Avenue Henri Grenet,64100,+33 559088971,,43.4962642,-1.4838107,Bayonne,France,bayonne@cyclable.com
Cycle Superstore,Frame works Building,D24 AW96,+353 14632270,,53.32387,-6.26967,Dublin,"Ireland, Republic of",sales@cyclesuperstore.ie
Panagua Bikes,50 Hayes St,BR2 7LD,+44 2082897802,,51.3786763,0.0175356,Bromley,United Kingdom,info@panaguabikes.com
Thijs Brand Tweewielers BV,Damlaan 6,2265 AN,+31 703279202,,52.0817143,4.3972724,Leidschendam,Netherlands,dennis@thijsbrand.nl
Evans Cycles Kings Cross,Unit 5-6 Pancras Rd,N1C 4AG,+44 3439092096,,51.5332071,-0.1260308,London,United Kingdom,manager.kingscrossev@evanscycles.com
Evans Cycles Milton Keynes,Xscape MK 602 Marlborough Gate,MK9 3XS,+44 3439092110,,52.041506,-0.748476,Milton Keynes,United Kingdom,manager.miltonkeynesev@evanscycles.com
Edinburgh Bicycle Cooperative Aberdeen,458-464 George St,AB25 3XH,+44 1224632994,,57.1544342,-2.1083316,Aberdeen,United Kingdom,enquires@edinburghbicycle.com
Evans Cycles Sutton Coldfield,House of Fraser 132-138 The Parade,B72 1PB,+44 3439092121,,52.5504815,-1.860417,Sutton Coldfield,United Kingdom,manager.suttoncoldfieldev@evanscycles.com
Evans Cycles Durham,Unit C1 Abbey Road Business and Trade Park,DH1 5HB,+44 3439092083,,54.8045601,-1.5815087,Durham,United Kingdom,manager.durhamev@evanscycles.com
Evans Cycles Ipswich,Unit 1a Martlesham Heath Retail Park,IP5 3RU,+44 3439092094,,52.0661363,1.2765159,Ipswich,United Kingdom,manager.ipswichev@evanscycles.com
Sigma Sports Ltd,St. Johns Place,KT1 4DA,+44 33300068833,,51.4126628,-0.311361,Kingston Upon Thames,United Kingdom,purchasingadmin@sigmasports.com
Bo Vélo (Ile de Nantes),62 Boulevard Victor Hugo,44200,+33 228492043,,47.2020184,-1.5483776,Nantes,France,contact@bovelonantes.com
Fietspaleis FP2 BVBA,Bellestraat 57,9100,+32 34354305,,51.17374,4.17138,Sint-Niklaas,Belgium,service@fietsendegeus.be
El Caballo de Acero,C/O'Donnell 7,28009,+34 914358971,,40.42163,-3.68062,Madrid,Spain,ciclismo@calmera.es
Edinburgh Bicycle Cooperative Leeds,140 Woodland Lane,LS7 4QG,+44 1132687463,,53.8327511,-1.5379364,Leeds,United Kingdom,leeds@edinburghbicycle.com
Hargroves Cycles Totton ,"150 Commercial Rd, Totton",SO40 3AA,023 8086 2011,,50.9188633,-1.4811721,Southampton,United Kingdom,southampton@hargrovescycles.co.uk
Edinburgh Bicycle Cooperative Canonmills,30 Rodney Street,EH7 4EA,+44 1315572801,,55.9621412,-3.1957838,Edinburgh,United Kingdom,canonmills@edinburghbicycle.com
Sykkologen AS,Storgata 35,2609,+47 90510407,,61.1133702,10.4679072,Lillehammer,Norway,info@sykkologen.com
Cyclable Lille Nord,150 avenue de l'espace,59118,+33 328044407,,50.6899157,3.0632245,Wambrechies,France,lille-nord@cyclable.com
Fietsen Wildiers bvba,Statiestraat 66,2070,+32 14811483,,51.21652,4.328439,Zwijndrecht,Belgium,rob@fietsenwildiers.be
Fietsen Wildiers Geel,Nieuwstraat 88,2440,+32 3366671,,51.1632622,4.994235,Geel,Belgium,geel@fietsenwildiers.be
Pearson Performance,232 Upper Richmond Road West,SW14 8AG,+44 2086422095,,51.464811,-0.265586,London,United Kingdom,performance@pearsoncycles.co.uk
Kilometre Zero,20 rue des Acacias,75017,+33 140546740,,48.876756,2.291211,Paris,France,contact@km0.paris
Trek Bicycle Milton Keynes Central,"2 Campbell Wharf, Campbell Park",MK9 4BG,+44 1908671122,,52.039266,-0.77571,Milton Keynes,United Kingdom,trekstoremk@trekbikes.com
Trek Bicycle Shrewsbury,53-54 Wyle Cop,SY1 1XJ,+44 1743343775,,52.706102,-2.749241,Shrewsbury,United Kingdom,trekstoreshrewsbury@trekbikes.com
Freddy Sport,Ninoofsesteenweg 315,1700,+32 25698002,,50.843917,4.2623009,Dilbeek,Belgium,info@freddysport.be
ADHOC di Salvadori Emilia,Via Liberta 7,38068,+39 3407313201,,45.88519,11.01767,Rovereto,Italy,info@adhoc-lab.com
Bikepartners.net Folding Bike Shop,512 Wilson St,95401,+1 8554833732,,38.43928,-122.72179,Santa Rosa,United States,info@bikepartners.net
Cyclable Saint-Mandé,95 Avenue de Paris,94160,+33 177851925,,48.8459208,2.4197222,Saint-Mandé,France,saint-mande@cyclable.com
La Bicicletería,"Av. Salaverry 2370, CC Real Plaza Salaverry",11,+511 2611354,,-12.0896857,-77.0551778,Jesus Maria,Peru,
Tiny Wheels Stadium One ,"e102, โครงการ Stadiumone, 88 Soi Chulalongkorn 5, Wang Mai, Pathum Wan District",10330,+66 867896703,,13.7408215,100.5238852,Bangkok ,Thailand,kbijaisoradat@gmail.com
Ashburn Bicycle Repair,111 Wilson Avenue NW,20176,+1 5712930689,,38.97007,-77.53718,Leesburg,United States,rob@ashburnbicyclerepair.com
Cycles Cesbron Angers centre,12 Rue Auguste Gautier,49100,+33 241954980,,47.46427,-0.56189,Angers,France,contact@cyclescesbron.fr
Charlotte Cycles Inc,"601 S. King Drive, Ste. CC",28204,+1 7043334358,,35.21046525,-80.83544474,Charlotte,United States,kelley@charlottecycles.com
E Street Bike Shop,"1609 Dreher Street, Suite E",95811,+1 9164465706,,38.58305,-121.47955,Sacramento,United States,estreetbikeshop@gmail.com
Cyclable Les Sables-d'Olonne,37 bis avenue François Mitterrand,85340,+33 251010274,,46.508564,-1.777313,Les Sables-d'Olonne,France,lessablesdolonne@cyclable.com
Evans Cycles Shirebrook,Unit F Brook Park East,NG20 8RY,+44 3439092175,,53.198822,-1.210062,Shirebrook,United Kingdom,manager.shirebrookev@evanscycles.com
Cyclable Bordeaux,17 Cours du Chapeau Rouge,33000,+33 556815998,,44.84278892,-0.572148743,Bordeaux,France,bordeaux@cyclable.com
Cycleways,31 Ormond Quay Lower,D01 PY97,+353 18734748,,53.346466,-6.2666312,Dublin,"Ireland, Republic of",sales@cycleways.com
Halfords Bristol Cribbs Causeway 0720,Cribbs Causeway Retail Park,BS34 5TS,+44 1179581140,,51.52166,-2.61885,Bristol,United Kingdom,general.0720-cribbscauseway@halfords-stores.co.uk
Halfords Preston Mariners Way 0531,Unit 2 Mariners Way,PR2 2ZB,+44 1772769160,,53.7618229,-2.7332809,Preston,United Kingdom,general.0531-preston@halfords-stores.co.uk
Halfords North Shields 0548,Unit H Silverlink,NE28 9ND,+44 1912347860,,55.0101101,-1.497076,North Shields,United Kingdom,general.0548-northshields@halfords-stores.co.uk
Halfords Telford 0862,Unit 1 Telford Forge Retail Park,TF3 4PA,+44 1952290414,,52.6808089,-2.4555583,Telford,United Kingdom,general.0862-telford@halfords-stores.co.uk
Halfords Chelmsford 0566,Unit D Chelmer Village Retail Park,CM2 6XE,+44 1244496220,,51.7330118,0.4943383,Chelmsford,United Kingdom,general.0566-chelmsford@halfords-stores.co.uk
Halfords Lincoln Tritton Road 0783,Tritton Road,LN6 7AN,+44 1522513186,,53.2236189,-0.5528917,Lincoln,United Kingdom,general.0783-lincoln@halfords-stores.co.uk
Halfords Doncaster 0877,Northbridge Road,DN5 9AN,+44 1302767030,,53.5271445,-1.1433778,Doncaster,United Kingdom,general.0877-doncaster@halfords-stores.co.uk
Halfords Farnborough 0733,Unit B Farnborough Gate,GU14 8BL,+44 1252372903,,51.3074092,-0.7504229,Farnborough,United Kingdom,general.0733-farnborough@halfords-stores.co.uk
Halfords Swindon 0854,Unit 2 Fleming Way,SN1 2NN,+44 1792613974,,51.561871,-1.7804818,Swindon,United Kingdom,general.0854-swindon@halfords-stores.co.uk
Halfords Maidstone 0562,Unit 6 Aylesford Retail Park,ME20 7TP,+44 1622715333,,51.2929174,0.4684919,Maidstone,United Kingdom,general.0562-maidstone@halfords-stores.co.uk
Halfords Blackpool 0447,Unit J Blackpool Retail Park,FY4 3AW,+44 1253403575,,53.7798398,-3.034784,Blackpool,United Kingdom,general.0447-blackpool@halfords-stores.co.uk
Halfords New Malden 0543,7 Beverley Way,KT3 4PH,+44 2083361177,,51.400855,-0.2455758,New Malden,United Kingdom,general.0543-newmalden@halfords-stores.co.uk
Halfords Portsmouth 0852,Unit 4 Ocean Park,PO3 5NP,+44 2392671242,,50.8182177,-1.0561664,Portsmouth,United Kingdom,general.0852-portsmouth@halfords-stores.co.uk
Halfords Hull 0772,Unit 4b Clough Road Retail Park,HU6 7PT,+44 1481447399,,53.7688757,-0.3437276,Hull,United Kingdom,general.0772-hull@halfords-stores.co.uk
Halfords Grimsby 0516,Peakes Parkway,DN32 9AW,+44 1472347755,,53.5648545,-0.0808837,Grimsby,United Kingdom,general.0516-grimsby@halfords-stores.co.uk
Halfords Stevenage 0902,Unit 3a Roebuck Retail Park,SG1 1XZ,+44 1438730500,,51.8888308,-0.2001845,Stevenage,United Kingdom,general.0902-stevenage@halfords-stores.co.uk
Halfords Belfast Boucher Road (NI) 0686,Unit 3 Lesley Retail Park,BT12 6HH,+44 2890660811,,54.58951,-5.93531,Belfast,"Ireland, Republic of",general.0686-belfastnireland@halfords-stores.co.uk
Universal Cycles PA,246 Granite Run Drive,17601,+1 5039436156,,40.0770856,-76.3334148,Lancaster,United States,sales@universalcycles.com
Halfords Poole Ringwood Road 0765,339-345 Ringwood Road,BH12 3JN,+44 1202721333,,50.7427455,-1.948167,Poole,United Kingdom,general.0765-poole@halfords-stores.co.uk
Halfords Inverness 0842,Harbour Road,IV1 1SY,+44 1463223388,,57.4862253,-4.2232081,Inverness,United Kingdom,general.0842-inverness@halfords-stores.co.uk
Halfords Thanet 0827,Unit 1A Westwood Retail Park,CT10 2FG,+44 1843209030,,51.3619922,1.3939854,Thanet,United Kingdom,general.0827-thanet@halfords-stores.co.uk
Halfords Colchester 0759,Unit B Colne View Retail Park,CO1 1YN,+44 1206763725,,51.8986414,0.9081836,Colchester,United Kingdom,general.0759-colchester@halfords-stores.co.uk
Halfords Leicester St. Margaret's Way 0977,Unit B St. Margarets Way,LE4 0BY,+44 1162627355,,52.646488,-1.1429252,Leicester,United Kingdom,general.0977-leicesterstmargaretsway@halfords-stores.co.uk
Halfords Scunthorpe 0595,Unit 2 Lakeside Retail Park,DN16 3UA,+44 1724270556,,53.5632986,-0.6195249,Scunthorpe,United Kingdom,general.0595-scunthorpe@halfords-stores.co.uk
Halfords Wakefield 0817,78 Ings Road,WF1 1TY,+44 1924387474,,53.6780023,-1.4944376,Wakefield,United Kingdom,general.0817-wakefield@halfords-stores.co.uk
Halfords Warrington Hawleys Lane 0758,Unit 1A Riverside Retail Park,WA1 2GZ,+44 1925411595,,53.3861693,-2.5885682,Warrington,United Kingdom,general.0758-warringtonhawleyslane@halfords-stores.co.uk
Halfords Crewe 0597,4 Grand Junction Way,CW1 2RP,+44 1270586652,,53.0951484,-2.4361536,Crewe,United Kingdom,general.0597-crewe@halfords-stores.co.uk
Halfords Ashford 0387,Unit 2 Gallagher Retail Park,TN23 7DH,+44 1233667320,,51.1354092,0.8683202,Ashford,United Kingdom,general.0387-ashford@halfords-stores.co.uk
Halfords Cardiff Newport Road 0801,503 Newport Road,CF23 9AD,+44 2920383535,,51.4973672,-3.1446671,Cardiff,United Kingdom,general.0801-cardiffnewportrd@halfords-stores.co.uk
Halfords Guildford 0763,Unit 4 Ladymead Retail Park,GU1 1AJ,+44 1483304475,,51.2482756,-0.5794252,Guildford,United Kingdom,general.0763-guildford@halfords-stores.co.uk
Halfords Aylesbury 0529,Unit 4 Bicester Road,HP19 8BU,+44 1296399010,,51.8241282,-0.8390571,Aylesbury,United Kingdom,general.0529-aylesbury@halfords-stores.co.uk
Halfords Ipswich Euro Retail Park 0393,Unit 3 Euro Retail Park,IP3 9SN,+44 1472325470,,52.03318,1.18739,Ipswich,United Kingdom,general.0393-ipswicheuropark@halfords-stores.co.uk
Halfords Aberdeen Kitty Brewster 0718,Unit 1 Bedford Road,AB24 3LJ,+44 1223495496,,57.1607062,-2.1132698,Aberdeen,United Kingdom,general.0718-aberdeenkittybrewster@halfords-stores.co.uk
Halfords Liverpool Edge Lane 0782,491-499 Edge Lane,L13 1AA,+44 1512305570,,53.4103585,-2.9243062,Liverpool,United Kingdom,general.0782-liverpooledgelane@halfords-stores.co.uk
Halfords Bedford 0887,St. Johns Estate,MK42 0XE,+44 1234262212,,52.1303375,-0.4632109,Bedford,United Kingdom,general.0887-bedford@halfords-stores.co.uk
Halfords Peterborough 0822,Mallory Road,PE1 5AU,+44 1733561357,,52.574794,-0.2241313,Peterborough,United Kingdom,general.0822-peterborough@halfords-stores.co.uk
Halfords Shirley (Solihull) 0857,Unit 8 Chalford Way,B90 4LD,+44 1217333686,,52.4003163,-1.8196328,Birmingham,United Kingdom,general.0857-shirley@halfords-stores.co.uk
Halfords Newtownabbey (NI) 0688,Unit 4 Valley Retail Park,BT36 7LP,+44 2890860934,,54.6610966,-5.9269094,Newtownabbey,United Kingdom,general.0688-newtownabbey@halfords-stores.co.uk
Halfords Tamworth 0727,Unit 2 Ventura Shopping Centre,B78 3HB,+44 4182762611,,52.6275733,-1.7036245,Tamworth,United Kingdom,general.0727-tamworth@halfords-stores.co.uk
Halfords Derby 0709,Unit 7 Wyvern Way,DE21 6NZ,+44 1332280700,,52.9174458,-1.4393403,Derby,United Kingdom,general.0709-derbywyvern@halfords-stores.co.uk
Halfords Slough 0800,380 Bath Road,SL1 6JA,+44 1628603312,,51.5206512,-0.644201,Slough,United Kingdom,general.0800-slough@halfords-stores.co.uk
Halfords Dundee 0824,Unit 3 Kingsway West,DD3 8RX,+44 1381832074,,56.4815464,-2.9992408,Dundee,United Kingdom,general.0824-dundee@halfords-stores.co.uk
Halfords Southampton Hedge End 0766,Units 10-12 Hedge End Trade Park,SO30 2JN,+44 1489773840,,50.9236025,-1.3135765,Southampton,United Kingdom,general.0766-southamptonhe@halfords-stores.co.uk
Halfords Kings Lynn 0747,Unit 2 Campbells Meadow,PE30 4YN,+44 1553692688,,52.740525,0.4066846,Kings Lynn,United Kingdom,general.0747-kingslynn@halfords-stores.co.uk
Halfords Stockton On Tees 0784,Bridge Road,TS18 3AY,+44 1642672883,,54.5590329,-1.3127192,Stockton,United Kingdom,general.0784-stockton@halfords-stores.co.uk
Halfords Braintree 0708,Unit 10 Chapel Hill Retail Park,CM77 8YH,+44 1376550993,,51.8684234,0.5702207,Braintree,United Kingdom,general.0708-braintree@halfords-stores.co.uk
Halfords Crawley 0757,Unit 4b County Oak Retail Park,RH11 7XN,+44 1293586280,,51.1333652,-0.1896916,Crawley,United Kingdom,general.0757-crawley@halfords-stores.co.uk
Fietsen Wildiers Hasselt,Heidestraat 6,3500,+32 11821116,,50.94213,5.36088,Hasselt,Belgium,hasselt@fietsenwildiers.be
En Selle Marcel Paris Les Halles - Montorgueil,40 rue Tiquetonne,75002,+33 144540646,,48.8653,2.34755,Paris,France,tiquetonne@ensellemarcel.com
Velorution Chelsea,325 Kings Road London,SW3 5E,+44 71485555,,51.4838777,-0.1778566,London,United Kingdom,chelsea@velorution.com
Evans Cycles Bristol,Lewins Mead,BS1 2PY,+44 3439092071,,51.4575115,-2.5945326,Bristol,United Kingdom,manager.bristolev@evanscycles.com
Evans Cycles Kingston upon Thames,48 Richmond Rd,KT2 5EE,+44 3439092097,,51.41439,-0.30055,Kingston upon Thames,United Kingdom,manager.kingstonev@evanscycles.com
Evans Cycles Nottingham,20-22 Maid Marian Way,NG1 6HS,+44 3439092114,,52.9525324,-1.1562881,Nottingham,United Kingdom,manager.nottinghamev@evanscycles.com
Evans Cycles Chelmsford,Unit 5 Army and Navy,CM2 7GY,+44 3439092077,,51.72675,0.48094,Chelmsford,United Kingdom,manager.chelmsfordev@evanscycles.com
Evans Cycles Cardiff,Dumfries Place,CF10 3FN,+44 3439092074,,51.4838797,-3.1741426,Cardiff,United Kingdom,manager.cardiffev@evanscycles.com
Evans Cycles Maidstone,2 Tonbridge Rd,ME16 8RP,+44 3439092106,,51.2713104,0.5132629,Maidstone,United Kingdom,manager.maidstoneev@evanscycles.com
Evans Cycles Cheltenham,Kingsditch Retail Park P4,GL51 9PG,+44 3439092078,,51.9156,-2.09655,Cheltenham,United Kingdom,manager.cheltenhamev@evanscycles.com
Evans Cycles Norwich,Westlegate House,NR1 3LR,+44 3439092112,,52.6258632,1.2951124,Norwich,United Kingdom,manager.norwichev@evanscycles.com
Evans Cycles Plymouth,55-57 New George Street,PL1 1RJ,+44 3439092190,,50.36342,-4.14756,Plymouth,United Kingdom,manager.plymouthgeorgeev@evanscycles.com
Evans Cycles Maidenhead,Unit 7 The Bishop Centre Bath Rd,SL6 0NX,+44 3439092105,,51.5222395,-0.6828388,Maidenhead,United Kingdom,manager.maidenheadev@evanscycles.com
Evans Cycles Leicester,Unit 5 Haymarket Shopping Centre,LE1 3PH,+44 3439092365,,52.6390647,-1.1407221,Leicester,United Kingdom,manager.leicesterhayev@evanscycles.com
Evans Cycles Chester,Unit 1 Boughton Tarvin Road,CH3 5AF,+44 3439092079,,53.1923754,-2.8789862,Chester,United Kingdom,manager.chesterev@evanscycles.com
Evans Cycles Sheffield,Unit 2 164-170 Queens Rd,S2 4DH,+44 3439092118,,53.3709414,-1.4641514,Sheffield,United Kingdom,manager.sheffieldev@evanscycles.com
Evans Cycles Gateshead,Unit 2 Allison Court,NE11 9YS,+44 3439092087,,54.957111,-1.676641,Gateshead,United Kingdom,manager.gatesheadev@evanscycles.com
Evans Cycles Aberdeen,Unit B 57 Union Street,AB11 5BJ,+44 3439092066,,57.174076,-2.148459,Aberdeen,United Kingdom,manager.aberdeenev@evanscycles.com
Evans Cycles York,3 Monks Cross Shopping Park,YO32 9JR,+44 3439092127,,53.9865,-1.0461,York,United Kingdom,manager.yorkev@evanscycles.com
Evans Cycles Braehead,Unit 5 Soar intu,PA4 8XQ,+44 3439092068,,55.87889,-4.37227,Glasgow,United Kingdom,manager.braeheadev@evanscycles.com
Evans Cycles Castleford,11a Xscape,WF10 4TA,+44 3439092075,,53.70969,-1.34248,Castleford,United Kingdom,manager.castlefordev@evanscycles.com
Evans Cycles East Dulwich,43A East Dulwich Road,SE22 9AN,+44 3439092084,,51.4611222,-0.0726198,London,United Kingdom,manager.eastdulwichev@evanscycles.com
Bonnet Bikes & More,Heinsiuslaan 15A,2353TJ,+31 717855982,,52.16308,4.53409,Leiderdorp,Netherlands,info@bikes-more.nl
Evans Cycles Leamington Spa,118-120 Warwick Street,CV32 4QY,+44 3439092099,,52.292195,-1.532447,Leamington Spa,United Kingdom,manager.leamingtonspaev@evanscycles.com
Evans Cycles Preston,Unit 1 North Rd,PR1 1NQ,+44 3439092116,,53.76721,-2.70316,Preston,United Kingdom,manager.prestonev@evanscycles.com
Evans Cycles Glasgow Fort,50 Auchinlea Way,G34 9JJ,+44 3439092174,,55.868102,-4.127315,Glasgow,United Kingdom,manager.glasgowfortev@evanscycles.com
Evans Cycles Manchester Deansgate,201 Deansgate,M3 3NW,+44 3439092108,,53.4785097,-2.2496915,Manchester,United Kingdom,manager.deansgateev@evanscycles.com
Evans Cycles Mortimer Street,62 Mortimer street,W1W 7RR,+44 3439092124,,51.517867,-0.141245,London,United Kingdom,manager.westendev@evanscycles.com
Balfe's Bikes - Reigate,43 Bell Street,RH2 7AQ,+44 1737242163,,51.23641028,-0.204795627,Reigate,United Kingdom,reigate@balfesbikes.co.uk
Halfords Chester 0808,Unit 27 Greyhound Retail Park,CH1 4QG,+44 1244390707,,53.19711887,-2.913361788,Chester,United Kingdom,general.0808-chester@halfords-stores.co.uk
Bike_id,Via Duchessa Jolanda 7/C,10138,+39 0110206297,,45.0731857,7.6643114,Torino,Italy,info@bikeidentity.it
Scavezzon,Via della Vittoria 141,30035,+39 0415703092,,45.4935788,12.1245602,Mirano,Italy,info@scavezzon.com
BCT,"Piazza Grecia, 29/35",196,+39 0645449234,,41.9336018,12.4741622,Roma,Italy,info@bctroma.it
La Stazione delle Biciclette -  Barona,Via Ettore Ponti 21,20143,+39 0289056878,,45.44247,9.15694,Milano,Italy,pigi@lastazionedellebiciclette.com
La Stazione delle Biciclette - Corso Lodi,"Corso Lodi, 66",20143,+39 0255603730,,45.44427,9.21508,Milano,Italy,info@lastazionedellebiciclette.com
La Vita e Velo ,LVEV - Universitate București,30044,+40 757114444,,44.4647372,26.084143,Bucharest,Romania,office@lavitaevelo.ro
ZTL bici,Via Val di Lanzo 151/153,141,+39 0688327105,,41.94433,12.520814,Roma,Italy,info@ztl-bici.it
Florence by Bike,"Via San Zanobi, 54r",50129,+39 055488992,,43.7794314,11.2556961,Florence,Italy,info@florencebybike.it
Sportler Bike Peschiera,"Località Mandella, 12",37019,+39 0458531648,,45.4332303,10.7064329,Peschiera del Garda,Italy,officina141@sportler.com
SPORTLER FLAGSHIP STORE BOLZANO,Portici 1,39100,+39 0471977719,,46.4996114,11.3562722,Bolzano,Italy,verkauf.sportler1.officina@sportler.com
Mi-Wheels,Piazza San Materno 18,20131,+39 0291639583,,45.488777,9.2279959,Milano,Italy,info@mi-wheels.com
Milano Cicli,Corso Novara 86,80143,+39 081200832,,40.8563309,14.2712797,Napoli,Italy,negozio@milanocicli.it
I Meccanici,Via Bufalini 18a,47921,+39 0541784754,,44.058069,12.5704912,Rimini,Italy,info@imeccanicirimini.it
Cicli Papini,Lungarno Pacinotti 19/20,56126,+39 050580586,,43.7166205,10.400767,Pisa,Italy,ciclipapini@inwind.it
Bikefellas,Via Giuseppe Gaudenzi 6,24128,+39 0350171908,,45.6894239,9.6558745,Bergamo,Italy,fatturebikefellas@gmail.com
No Work Team Srl,Viale Francesco Baracca 13,28041,+39 032244974,,45.75363,8.56219,Arona,Italy,loretta@noworkteam.it
Il Gatto con I Pedali,Via Piero Gobetti 125,65121,+39 0852122736,,42.46733,14.2157345,Pescara,Italy,salvo@ilgattoconipedali.it
Zio Bici,Via Adriano Balbi 2C,176,+39 693574093,,41.8862589,12.5318991,Roma,Italy,andrea@ziobici.it
Halfords Plymouth Marsh Mills Retail Park 0702,Unit D Marsh Mills Retail Park,PL6 8LX,+44 1751224006,,50.39380835,-4.088186912,Plymouth,United Kingdom,general.0702-plymouth@halfords-stores.co.uk
Bike Republic Sint-Pieters-Leeuw,Bergensesteenweg 734,1600,+32 33778389,,50.76252,4.25115,Sint-Pieters-Leeuw,Belgium,sintpietersleeuw@bikerepublic.be
En Selle Marcel PARIS CHAMPS ÉLYSÉES,29 rue de Berri,75008,+33 153750627,,48.87415,2.30567,Paris,France,berri@ensellemarcel.com
La maison du velo,Milcampslaan 235,1030,+32 27420745,,50.85417,4.39626,Bruxelles,Belgium,info@lamaisonduvelo.be
ファン ライド シクロ ヤマグチ,大町2－15－40,青葉区,022-223-1618,,38.261222,140.865709,仙台市,Japan,no_reply@brompton.com
Y's Road・池袋本館,東京都豊島区東池袋　1－27－8 池袋原ビル1Ｆ＆3F,1－27－8,03-5992-4070,,35.729278,139.716621,豊島区,Japan,no_reply@brompton.co.uk
Woodz Hair,Via Caraglio 5,12100,+39 3480374137,,44.3915179,7.5492467,Cuneo,Italy,woodz.hair@gmail.com
Mountain Mania Cycles - Tring,4-10 Miswell Lane,HP23 4BX,1442822458,,51.7913746,-0.669683,Tring,United Kingdom,tring@mountainmaniacycles.co.uk
Jour de Vélo - Paris,33 Boulevard des Batignoles,75008,+33 975383069,,48.8763,2.3183,Paris,France,olivier@jourdevelo.fr
One Bike Shop,Senayan Trade Center Lower Ground No. 11-12,10270,+62 2157931993,,-6.227696489,106.7992185,Jakarta,Indonesia,onebikeshop@gmail.com
Fietsen Gaethofs,Nieuwstraat 39/50b,3600,+32 89352450,,50.96200618,5.497961469,Genk,Belgium,genk@gaethofs.be
Les Velos de Victor,30 rue Bretonnaise,49300,+33 0241710258,,47.06157341,-0.882858873,Cholet,France,contact@lesvelosdevictor.fr
Powerstation Electric Bikes,25 Kingsway,PR8 1ND,+44 1704510850,,53.645886,-3.012279,Southport,United Kingdom,customerservice@powerstation-ebikes.co.uk
Top Jet T/as Highway Cycles,Great Northern Works,SG14 1QN,+44 1992536007,,51.7990541,-0.0833278,Hertford,United Kingdom,hertford@highwaycycles.co.uk
Gran Bike Torino,Corso Moncalieri 11,10131,+39 01119947205,,45.0595149,7.6952603,Torino,Italy,abbigliamento@granbike.com
Fahrrad Pur - Gernot Mohr,Schlachthausstraße 8,6850,+43 557231440,,47.417856,9.7368608,Dornbirn,Austria,info@fahrradpur.at
2radtreff Huber,Breitenfurter Straße 270,1230,+43 18696375,,48.1444516,16.2932234,Wien,Austria,office@2radtreff.at
Grundtner GmbH,Metzgergasse 2,5400,+43 6245804930,,47.6815601,13.0949667,Hallein,Austria,grundtner@grundtner.com
Bike Arena Bender Fahrradhaus Bender GmbH,Koepffstr. 7-13,74076,+49 713196150,,49.155043,9.215953,Heilbronn,Germany,service@bikearena-bender.de
Bike Department Ost,Karl-Liebknecht Str. 31,4107,+49 3416893334,,51.327531,12.374311,Leipzig,Germany,kontakt@bdoleipzig.de
Arno's Bikestore,Kölner Str. 444,41468,+49 21312911218,,51.18201,6.72689,Neuss,Germany,info@arnos-bikestore.de
BOXBIKE Inh. Patrick Möller,Prenzlauer Allee 206,10405,+49 3060981861,,52.537522,13.422829,Berlin,Germany,shop@boxbike.de
The Urban Mobility Store Inh. Wil Röttgen,Kolonnenstr. 61,10827,+49 1631615599,,52.486565,13.359463,Berlin,Germany,mail@theurbanmobilitystore.com
Die Radgeber Ehrhardt & Schleifenbaum GbR,Christofsstr. 5,55116,+49 6131372444,,50.001988,8.27164,Mainz,Germany,einkauf@die-radgeber.de
Das kleine Radhaus Zweirad GmbH,Bahnhofstr. 55-57,69115,+49 6221183727,,49.405144,8.686071,Heidelberg,Germany,info@kleine-radhaus.de
Velocity Braunschweig GmbH,Kurt-Schumacher-Str. 8-14,38102,+49 53112311820,,52.254448,10.535883,Braunschweig,Germany,radhaus@velocity-bs.de
Velo-Radsport GmbH,Ottilienstraße 9,90461,+49 911473611,,49.4414326,11.0917709,Nürnberg,Germany,info@velo-radsport.com
DRABIM KG,Schnewlinstr. 5,79098,+49 7612927670,,47.99456,7.840213,Freiburg,Germany,info@radgeber-freiburg.de
Velocity Stahlroß Fahrradladen GmbH,Belderberg 18,53111,+49 2289813660,,50.736326,7.104453,Bonn,Germany,info@velo-city.de
Velo Voss GmbH,Lange Geismar-Str. 72-73,37073,+49 551484236,,51.532073,9.939929,Göttingen,Germany,info@velovoss.de
Velowelt-Leipzig,Täubchenweg 84,4317,+49 34124689032,,51.335809,12.406225,Leipzig,Germany,info@velowelt-leipzig.de
Drahtesel GmbH Inh. Raimund Gerwing,Servatiiplatz 7,48143,+49 251511228,,51.9600738,7.6345773,Münster,Germany,team@drahtesel-muenster.de
Engelhorn sports GmbH,Fabrikstationstrasse 40,68161,+49 6211672217,,49.467607,8.490303,Mannheim,Germany,biking@engelhorn.de
Dynamo Fahrradhandelsges mbH,Goschenstr. 69,31134,+49 5121132397,,52.147029,9.955023,Hildesheim,Germany,info@dynamo-fahrradideen.de
Velophil Fahrradhandel GmbH,Alt-Moabit 72,10555,+49 3039902116,,52.524003,13.332275,Berlin,Germany,team@velophil.de
Extratour GmbH Fahrräder & Zubehör,Schwabentorring 12,79098,+49 761286733,,47.99132,7.854141,Freiburg,Germany,pp@extratour-freiburg.de
Zweirad-Center Rademacher GmbH,Ziegenmarkt 9,19055,+49 3855507224,,53.632113,11.420387,Schwerin,Germany,mail@rademacher.world
Zweirad Sebold,Duisburger Str. 147,45479,+49 208425232,,51.426798,6.859274,Mülheim an der Ruhr,Germany,info@zweirad-sebold.de
Fahrrad XXL - Meinhövel GmbH,Mühlenstr. 35,45894,+49 209930790,,51.585804,7.048223,Gelsenkirchen,Germany,info@fahrradxxl-meinhoevel.de
Fahrrad Dulsberg,Straßburger Str. 9-11,22049,+49 40612280,,53.580751,10.059726,Hamburg,Germany,info@fahrrad-dulsberg.de
Fahrrad XXL Kalker GmbH,Oderstr. 3,67071,+49 6215790991,,49.488597,8.352784,Ludwigshafen,Germany,info.lh@fahrrad-xxl.de
Faltradritter Thomas Inderka,Ritterstrasse 3,50668,+49 2218010729,,50.9465798,6.9526595,Köln,Germany,info@faltradritter.de
Fahrradcafé GmbH,Asternstr. 2,30167,+49 51145014270,,52.385471,9.724061,Hannover,Germany,post@fahrradcafe.de
Fahrrad-XXL - Feld GmbH,Einsteinstr. 35,53757,+49 224197730,,50.792021,7.176638,St. Augustin,Germany,info.sa@fahrrad-xxl.de
Fahrradhandel Radfinesse Inh. Roger Heise,Haspeler Str. 10,42285,+49 20281512,,51.258429,7.164675,Wuppertal,Germany,laden@radfinesse.de
Fahrradprofis Würzburg,Raiffeisenstr. 3,97080,+49 93112338,,49.798281,9.950508,Würzburg,Germany,ak@fahrradprofis.info
Fahrradies Fahrradfachgeschäft GmbH,Bernburger Str. 25,6108,+49 3452909727,,51.493191,11.966276,Halle,Germany,info@fahrradies-halle.de
Fahrrad Ranzinger,Eichenallee 8,15711,+49 3375293909,,52.294844,13.629885,Königs Wusterhausen,Germany,kontakt@fahrrad-kw.de
Fahrradhof VSF GmbH & Co.KG,Wilhelmshöher Allee 261,34131,+49 561471132,,51.313462,9.44307,Kassel,Germany,buero@fahrradhof.de
Fahrradladen BALANCE GmbH,Kortumstr. 5,44787,+49 23412051,,51.476347,7.216157,Bochum,Germany,email@balance-fahrradladen.de
Freilauf GmbH,Untere Karlstr. 9-11,91054,+49 9131202220,,49.596416,11.006351,Erlangen,Germany,bike@freilauf.de
Feine Räder GmbH,Obernstr. 42,33602,+49 52163811,,52.019783,8.528054,Bielefeld,Germany,bielefeld@feineraeder.de
Feine Räder Regensburg GmbH,Furtmayrstr. 10-12,93053,+49 9417000365,,49.009536,12.103811,Regensburg,Germany,info@feine-raeder.de
HEIGEI / Rehmann Perfektion für das Fahrrad,Am Buchenbaum 38,47051,+49 20323722,,51.431492,6.772097,Duisburg,Germany,heigei.duisburg@t-online.de
KlappRad,Walfischgasse 16,89073,+49 73155212721,,48.399658,9.988627,Ulm,Germany,info@klappradulm.de
Keha-Sport GmbH,Goseriede 1,30159,+49 51116127594,,52.376311,9.731764,Hannover,Germany,verkauf@keha-sport.de
Per Pedale GmbH,Adalbertstr. 5,60486,+49 6970769110,,50.119894,8.649078,Frankfurt,Germany,info@perpedale.de
Rad & Tat Fahrradhandlung GmbH,Waldstr. 58,76133,+49 72122238,,49.007165,8.392478,Karlsruhe,Germany,info@radundtat.net
Räderwerk GmbH,Hainhölzer Str. 13,30159,+49 511717174,,52.381151,9.730835,Hannover,Germany,info@raederwerk.com
Rad am Grün Inh. Christian Wongel,Am Grün 54,35037,+49 64218859780,,50.805139,8.771294,Marburg,Germany,info@radamgruen.de
Rad Welle,Buchheimer Str. 32-34,51063,+49 2216110780,,50.963243,7.001678,Köln,Germany,supa@rad-welle.de
Pro Rad,Friesenstr. 48,30161,+49 511313967,,52.381782,9.749153,Hannover,Germany,info@proradhannover.de
RADieschen & Co.Ulrich Bau,Marie-Curie-Str. 1,79100,+49 7614014435,,47.976711,7.825548,Freiburg,Germany,rad@radieschen-co.de
Radhaus Schauerte,Hildesheimer Str. 53,30169,+49 5118039947,,52.362856,9.748744,Hannover,Germany,info@radhaus-schauerte.de
Radlager Nirala Fahrradladen GmbH,Sechzigstr. 6,50733,+49 221734640,,50.959988,6.949405,Köln,Germany,info@radlager.de
Radsport Radial GmbH,Inselgasse 13,78462,+49 75319423555,,47.66465,9.175668,Konstanz,Germany,mail@radial.de
Speiche RV Zweirad GmbH,Fehrfeld 62,28203,+49 421700331,,53.0732225,8.8241359,Bremen,Germany,kontakt@speiche.de
StadtRad Köln,Bonner Str. 91,50677,+49 221328075,,50.917707,6.960756,Köln,Germany,info@stadtrad-koeln.de
Stadtrad Stuttgart-West GmbH,Gutenbergstr. 45 a,70176,+49 7116567199,,48.772459,9.160883,Stuttgart,Germany,stadtrad@stadtrad-west.de
Fietsen De Geus Berchem,Grote Steenweg 95,2600,+32 32398474,,51.1958028,4.4178469,Antwerpen,Belgium,berchem@fietsendegeus.be
Bikes2fold SARL,5 place Montbrillant,1201,+41 798161989,,46.2096977,6.1403133,Genève,Switzerland,contact@bikes2fold.com
Radlos!,Florastrasse 38,8008,+41 443810726,,47.3614292,8.5518941,Zürich,Switzerland,seefeld@radlos.ch
Velo Winterthur GmbH,Hegistrasse 35B,8404,+41 522382140,,47.50146906,8.753579958,Winterthur,Switzerland,info@velo-winterthur.ch
H.Mohr AG Zwei-Rad Fachgeschäft,Ackeretstrasse 2,8400,+41 522228081,,47.5028698,8.7185156,Winterthur,Switzerland,info@velomohr.ch
Velo Pfiffner AG,Linsebühlstrasse 67,9000,+41 712236262,,47.4250167,9.3833462,St.Gallen,Switzerland,velopfiffner@bluewin.ch
Velofix AG,Birmensdorferstr. 126,8003,+41 444631303,,47.3702657,8.5207006,Zürich,Switzerland,velofix@velofix.ch
Cyclable Tours Nord,13 rue Albert Einstein,37100,+33 247447062,,47.42565,0.70485,Tours,France,tours.nord@cyclable.com
Altavelo Fahrradladen,Bergheimer Str. 101,69115,+49 6221453649,,49.407701,8.681755,Heidelberg,Germany,info@altavelo.de
Balfe’s Bikes - Fulham,584-590 Fulham Road,SW6 5NT,+44 2077311700,,51.4777111,-0.2016523,London,United Kingdom,fulham@balfesbikes.co.uk
En Selle Marcel Saint Germain des Pres,26 Boulevard Raspail,75007,+33 143259842,,48.85384,2.326,Paris,France,esmraspail@ensellemarcel.com
En Selle Marcel Neuilly Sur Seine - La Defense,6 avenue de Madrid,92200,+33 147470429,,48.88466,2.25976,Neuilly Sur Seine,France,esmmadrid@ensellemarcel.com
En Selle Marcel Versailles,Gare de Versailles Chantiers,78000,+33 130211077,,48.79707,2.135551,Versailles,France,versailles@ensellemarcel.com
Mesterbike & Coffee Project,Mester utca 11,1095,+36 12189986,,47.4802812,19.0683297,Budapest,Hungary,info@mesterbike.hu
Kerékvár kerékpárbolt,Hattyú utca 10/c,H-1015,+36 12148814,,47.5074826,19.0273492,Budapest,Hungary,kerekvar@kerekvar.hu
B-SPOKES,83 Joo Chiat Place #01-02 Singapore,427800,+65 69106333,,1.31369,103.901892,Singapore,Singapore,info@b-spokes.co
Bicycle Nation,83 Norwood Rd,SE24 9AA,+44 7796201261,,51.4505851,-0.1026757,London,United Kingdom,info@bicyclenation.co.uk
B.O.C. Bike & Outdoor Company GmbH,Stresemannstraße 13,28207,+49 421432544,,53.07060167,8.8594729,Bremen,Germany,bremen@b-o-c.com
Junik - hpv GmbH,Rollstraße 33,38678,+49 53239632486,,51.801894,10.33780158,Clausthal-Zellerfeld,Germany,info@junik-hpv.de
Biciclos,Calle Pagés del Corro n.87,41010,+34 954333872,,37.38316,-6.004,Sevilla,Spain,biciclos@hotmail.com
Fahrrad-XXL Emporon GmbH & Co. KG,Washington Str. 65,1139,+49 351288580,,51.0679284,13.6898968,Dresden,Germany,kundenservice-emporon@fahrrad-xxl.de
Fahrrad Franz GmbH XXL,Industriestr. 18-20,56218,+49 61557090000,,50.395173,7.529928,Mülheim-Kärlich,Germany,info.mk@fahrrad-xxl.de
Monsieur Pignon Madame Guidon Bordeaux,56 rue Bouquière,33000,+33 987027438,,44.8361506,-0.5697097,Bordeaux,France,bordeaux@monsieurpignonmadameguidon.com
La Biciteka,C/Sant Joaquim 69 local,8302,+34 930019345,,41.5372325,2.4417954,Mataro Barcelona,Spain,info@labiciteka.com
Bike Republic Gent Dampoort,Antwerpsesteenweg 190,9000,+32 92470490,,51.0588944,3.7425863,Gent,Belgium,gent-dampoort@bikerepublic.be
Mammoth Barcelona,Carrer de Roger de Llúria 115,8037,+34 934521616,,41.396192,2.164604,Barcelona,Spain,barcelona.lluria@mammothbikes.com
Radsport Kimmerle,Arndstr. 2,71116,+49 703421221,,48.641631,8.906416,Gärtringen,Germany,frank@radsportkimmerle.de
Feine Räder Magdeburg,Liebknechtstr. 35-37,39108,+49 3918190416,,52.123494,11.611112,Magdeburg,Germany,kontakt@feine-raeder-magdeburg.de
Nich Bike,No.127 Section 2,510,+886 48391280,,23.95636128,120.5758749,Yuanlin,Taiwan (Province Of China),nichbike2001@mail2000.com.tw
Green Point Outdoor,No.171 Section 1,404,+886 422321568,,24.16261763,120.6848976,Taichung,Taiwan (Province Of China),gp.outdoor171@gmail.com
Lane & Trip Taipei,1F No.425,105,+886 227535177,,25.06118375,121.5611696,Taipei,Taiwan (Province Of China),service@lane-trip.com.tw
Lane & Trip Tainan,1F No.142,700,+886 62219938,,23.00063178,120.1923699,Tainan,Taiwan (Province Of China),service142@lane-trip.com.tw
Brompton Junction Melbourne,755 Nicholson Street,3054,+61 384888922,,-37.7816,144.9776,Melbourne,Australia,melbourne@bromptonbikes.com.au
Captain Walker's Bicycles,Shop 17 Manning Arcade,6160,+61 893354321,,-32.0546,115.7471,Fremantle,Australia,thecaptain@captainwalkersbicycles.com.au
Pushys Fyshwick,79 Collie Street,2609,+61 262804984,,-35.3301,149.1797,Canberra,Australia,fyshwick@pushys.com.au
My Ride Hobart,129 Sandy Bay Road,7005,+61 362120327,,-42.8931,147.3255,Sandy Bay,Australia,hobart@myride.com.au
Treadly Bike Shop,23 Mattingley Lane,5067,+61 882320158,,-34.9178,138.6266,Adelaide,Australia,info@treadlybikeshop.com.au
Omafiets,278-282 Mitchell Road,2016,+61 280144228,,-33.9051,151.1897,Sydney,Australia,contact@omafiets.com.au
Metro Cycles,2 Bellevue Street,2302,+61 249621060,,-32.9256,151.7617,Newcastle,Australia,sales@metrocycles.com.au
Epic Cycles,81 Baroona Road,4064,+61 733682324,,-27.4665,153.0009,Brisbane,Australia,info@epiccycles.com.au
Perth Electric Bike Centre,3a/4 King Edward Road,6017,+61 861617131,,-31.9036,115.8051,Perth,Australia,info@perthelectricbikecentre.com.au
Auto Focus Bike Center,Hiway Duterte corner Good Shepherd Rd.,6000,+63 322553392,,10.31272535,123.8776838,Cebu City,Philippines,autofocus_bikecenter@yahoo.com
Warlito's Bikestop Cycling Shop,Purok 1 Hechanova St.,6100,+63 344314495,,10.66577495,123.034461,Bacolod City,Philippines,jabereber@yahoo.com
Bike Town Cyclery,2240 Chino Roces Ave. Cancio Bldg.,1200,+63 88697894,,14.54486861,121.0162367,Makati City,Philippines,biketowncyclery@gmail.com
Tryon Marketing,477 Dr Jose P. Rizal Ave,1207,+63 88954515,,14.57144473,121.0182342,Makati City,Philippines,tryon_marketing@yahoo.com
Paulinas Cycle Center,Door1 CCV-2 Cartimar International Shopping Center,1300,+63 88337617,,14.55089036,120.9966866,Leveriza Street Pasay City,Philippines,paulinas_bikes@yahoo.com
Cool Stuff 168,133 G. Roxas Street,1100,+63 87403695,,14.63469113,120.9937696,Quezon City,Philippines,coolstuff168ph@yahoo.com
Velocipede Bike Shop,Unit B Royale Place Mall Don Antonio Drive,1119,+63 83518488,,14.68475399,121.0866389,Old Balara Quezon City,Philippines,brian_acosta2000@yahoo.com
HwaSin Bike (GwangJu),67 Naesang-ro Gwangsan-gu,62433,+82 629426140,,35.13711445,126.7995318,Gwangju,Republic Of Korea,lespo5366@daum.net
Velo ENG.,1F 507-6 Iljik-Dong,14354,+82 28997070,,37.42881178,126.8930379,Gwangmyeong-Si,Republic Of Korea,veloeng@naver.com
Paramount Bike (Daegu),1F 187-7 Jung-Dong,42155,+82 537661212,,35.84123481,128.6142975,Daegu-Si,Republic Of Korea,para8439@naver.com
NSM Bike,1F 70 Gilju-ro,14544,+82 323223837,,37.50558653,126.7497804,Bucheon-si,Republic Of Korea,nhj616@naver.com
Ku#,1F 35-4 Jeongja-1-Dong,13609,+82 317149896,,37.37326176,127.1119287,Seongnam-Si,Republic Of Korea,islim78@naver.com
Bike Top (ChunCheon),104 Gongji-ro,24327,+33 2627872,,37.85635224,127.7487564,Chuncheon-si,Republic Of Korea,kugak@naver.com
OCC 515 (BuSan),515 Oncheoncheon-ro,47905,+82 515531149,,35.19104398,129.1093329,Busan,Republic Of Korea,cherokee33@naver.com
Take Out Bike,No. B1311470 Jungang-ro,10379,+82 7077377733,,37.6725973,126.7573213,Goyang-si,Republic Of Korea,takeoutbike@gmail.com
Monocle Bike (Daegu),1F 92 Paldal-ro,41710,+82 7086775599,,35.89000576,128.5600807,Daegu-Si,Republic Of Korea,monoclebike@naver.com
Kims Bike,66 Geumho-ro,4718,+82 222810880,,37.54944974,127.0262378,Seoul,Republic Of Korea,kimsbike@naver.com
SenceNe (CheongJu),204 Sajik-daero,28650,+82 432888033,,36.63587039,127.4712387,Cheongju-si,Republic Of Korea,inosense2@naver.com
Velo Space,120 Gongse-ro,17085,+10 83484535,,37.23682572,127.107217,Gyeonggi-Do,Republic Of Korea,velo_space@naver.com
Bikey GangNam Store,"34, Nonhyeon-ro, Gangnam-gu",6312,+82 1032323489,,37.47410481,127.048732,Seoul,Republic Of Korea,bill@bikey.co.kr
PR Bike (ChangWon),1F 13 Chungjang-ro 671beon-gil,51628,+10 94892000,,35.13031022,128.7053132,Changwon-si,Republic Of Korea,csc121@naver.com
Buy Bicycle,1F 35 Yongmin-ro 237beon-gil,11769,+82 707795972,,37.75024081,127.0976122,Uijeongbu-si,Republic Of Korea,forceonemid@naver.com
O-Chang MTB (CheongJu),315 Ochang-daero,28120,+43 2418859,,36.71130059,127.4281461,Cheongju-si,Republic Of Korea,ochangmtb@naver.com
Velo House,1F 515 Seunghak-ro,22695,+82 1089885887,,37.56598439,126.6766982,Incheon,Republic Of Korea,velohouse@naver.com
SHIN'S,1F 19 Daejeong-ro,21390,+82 325022758,,37.49735876,126.7239815,Incheon,Republic Of Korea,shinsbike@shinsbike.com
OMK Bike Camp (UlSan),72 Taehwa-ro,44439,+82 522494700,,35.55379117,129.2838092,Ulsan,Republic Of Korea,red1234504@gmail.com
Halla Cycle (Jeju),188 Yeonbuk-ro,63147,+82 647498510,,33.48159264,126.5014607,Jeju-do,Republic Of Korea,halla@hallacycle.com
Bike Factory (WonJu),1F 525 Seowon-daero,26450,+33 7640612,,37.32444083,127.9608948,Wonju-si,Republic Of Korea,harimahoo@naver.com
Gwang-Jin OMK,B1F 13 Sutaekcheon-ro,11929,+82 315552846,,37.5988146,127.144755,Guri-si,Republic Of Korea,brs1157@hotmail.com
Hellow Velo Bicycle,1F 15-8 10beon-gil,12097,+10 97513633,,37.57333156,126.9835741,Namyangju-si,Republic Of Korea,hellovelo@naver.com
SIMS Bike,"Unit. 107 and 108, 112, Gwangdeok 4-ro, Danwon-gu",15485,+82 7041297803,,37.31512075,126.824765,Ansan-si,Republic Of Korea,inmax@bikey.co.kr
Pedalspot Taipan,10 Jalan USJ 10/1E,47620,+60 380811527,,3.049749,101.58358,Subang Jaya,Malaysia,taipan@pedalspot.com.my
W.G. Cycle,36 - 36 A Nam Meng Building Ban Hock Road,93100,+60 82238239,,1.5525419,110.352987,Kuching,Malaysia,wgcycle@gmail.com
Pedalspot Pandan Indah,2 Jalan Pandan Indah 1/23D,55100,+60 392028533,,3.13123,101.752461,Pandan Indah,Malaysia,pi@pedalspot.com.my
Pedalspot SS2,9 Jalan SS2/3.,47300,+60 378770450,,3.112303,101.611652,Petaling Jaya,Malaysia,ss2@pedalspot.com.my
Nur Ikhsan Trading,139 Jalan Rawa,81200,+60 72416798,,1.472655,103.6679823,Tampoi,Malaysia,noorcyclingshop@gmail.com
Auriga Invent Srl,Via Melzo 36,20129,+39 0236587670,,0,0,Milan,Italy,info@bromptonjunction.it
Starbike,Bruno-Marek-Allee 11,1020,+43 12198560,,48.22756002,16.39269326,Wien,Austria,office@starbike.at
MR Bicycle,547 Main St,40065,+1 5022204136,,38.21118,-85.21716,Shelbyville,United States,mainstreetbikes@gmail.com
Küstenrad E-Bike Store Kiel,Bahnhofstraße 37,24143,+49 43158091140,,54.34229135,10.13310582,Kiel,Germany,team@kuestenrad-kiel.de
Mammoth Fuente del Berro,Calle de la Fuente del Berro 9,28009,+34 912909109,,40.4265237,-3.6706499,Madrid,Spain,compras.direccion@mammothbikes.com
Radspezial,Petzvalstraße 54,38104,+49 531471949,,52.284137,10.57838931,Braunschweig,Germany,volker.voge@lebenshilfe-braunschweig.de
Holland Bikes Réparation et Location de Vélos,Parking Meyerbeer 3 rue de la Chaussée d'A,75009,+33 144790696,,48.8715078,2.3339896,Paris,France,atelierhb09@hollandbikes.com
Balfe's Bikes - Sutton,126 High Street,SM1 1LU,+44 2080767400,,51.36378044,-0.193269189,Sutton,United Kingdom,sutton@balfesbikes.co.uk
Balfe's Bikes - Islington,33 Essex Road,N1 2SA,+44 2045315550,,51.53732131,-0.100998512,Islington,United Kingdom,islington@balfesbikes.co.uk
Balfe's Bikes - Waterloo,69-71 The Cut,SE1 8LL,+44 2045297777,,51.50275296,-0.107962387,Waterloo,United Kingdom,waterloo@balfesbikes.co.uk
Bike Republic Gent-Rooigemlaan,Rooigemlaan 2e,9000,+32 92470475,,51.05481,3.697439,Gent,Belgium,gent-rooigem@bikerepublic.be
Tromm Tweewielers,Europaplein 45,1078 GV,+31 206642099,,0,0,Amsterdam,Netherlands,rikard@elcykelkompaniet.se
En Selle Marcel Paris - BNF,"94, Avenue de France",75013,+33 153600831,,48.82951,2.37805,Paris,France,france@ensellemarcel.com
En Selle Marcel Paris - Le Marais,"22, rue de La Perle",75003,+33 140090402,,48.85992,2.36109,Paris,France,laperle@ensellemarcel.com
Bike Republic Kuurne,Ringlaan 11,8720,+32 56715832,,50.84738226,3.265909065,Kuurne,Belgium,kuurne@bikerepublic.be
Electric Bike Team,29 East Street,1010,+64 93685899,,-36.859216,174.758291,Auckland,New Zealand,contact@ebiketeam.co.nz
Bicycle Junction,1 Marion St,6021,+64 43893893,,-41.293793,174.777238,Te Aro,New Zealand,shop@bicyclejunction.co.nz
Bulten Bike ekonomisk förening,Segelvägen 28,66340,+46 730526507,,59.3232902,13.5063878,Hammarö,Sweden,team@bultenbike.se
UAB PROSPORT.LT Vilnius,Liepyno g. 2/Saltoniškių g. 29,8106,+370 68243712,,54.6981992,25.25536152,Vilnius,Lithuania,vilnius@prosport.lt
UAB PROSPORT.LT Kaunas,Radvilėnų pl. 1 E,50264,+370 68674757,,54.90814087,23.93827696,Kaunas,Lithuania,prosportkns@prosport.lt
Tredz Cardiff,Penarth Road Retail Park,CF11 8EF,+44 2920702229,,51.45371097,-3.197981131,Cardiff,United Kingdom,cardiff@tredz.co.uk
Tredz Swansea,Castell Close Swansea Enterprise Park,SA7 9FH,+44 1792702555,,51.65692433,-3.906785131,Swansea,United Kingdom,swansea@tredz.co.uk
Cyclable Le Plessis Bouchard,160 chaussée Jules César,95130,+33 134157969,,49.001103,2.224875,Le-Plessis-Bouchard,France,eric.moreau@cyclable.com
SpinWarriors - Kemang,Jl. Kemang Timur Raya 90C (Ruko B),12730,+62 81212989834,,-6.270901697,106.8235735,Jakarta,Indonesia,info@spinwarriors.com
SpinWarriors - Bandung,Jl. Batununggal Indah Raya 77,40267,+62 2287502415,,-6.953003371,107.6251275,Bandung,Indonesia,info@spinwarriors.com
SpinWarriors - Kampung Sepeda,"Jl. Raya Pagedangan Kp. Cicayur II No.153,",15336,+62 817381000,,-6.2941626,106.6157141,Tangerang,Indonesia,info@spinwarriors.com
Le Local à Vélo,2 rue D'Orléans,14360,+33 683789594,,49.367,0.08167,Trouville-Sur-Mer,France,lelocalavelotrouville@gmail.com
Biker bvba,Steendam 16,9000,+32 92242903,,51.0570387,3.7292232,Ghent,Belgium,webshop@bikerfietsen.be
Fietsen de Geus Edegem,Trooststraat 34,2650,+32 32381712,,51.15457389,4.446301123,Edegem,Belgium,edegem@fietsendegeus.be
Bike Republic Oudenaarde,Westring 41,9700,+32 55474859,,50.87239574,3.609699566,Oudenaarde,Belgium,oudenaarde@bikerepublic.be
Mi Bicio,Avenida Italia 963,7501184,+56 227065718,,-33.443559,-70.626097,Santiago,Chile,contacto@mibicio.cl
WECLE YeoUiDo Store," B1F, 16, Gukjegeumyung-ro 8-gil, Yeongdeungpo-gu",7330,-5899,,37.52202294,126.9288284,Seoul,Republic Of Korea,
bb5 HQ (YongSan)," 1F, Jin-Yeong Bldg., 185-3, Seobinggo-Dong, Yongsan-Gu",4384,-16091,,37.52067941,126.993579,Seoul,Republic Of Korea,
bb5 EAST,"No.108, 144, Gucheonmyeon-ro, Gangdong-gu",5247,-10163,,37.54236698,127.1208349,Seoul,Republic Of Korea,
Feral Cat Bicycle,"1F, 138-11, Munjeong-Dong, Songpa-Gu",5744,-7390,,37.48942972,127.1349942,Seoul,Republic Of Korea,
Factory One,"1F, 453, Jeungsan-ro, Eunpyeong-gu",3450,-638,,37.59690294,126.9147892,Seoul,Republic Of Korea,
Full-Outer,"1F, 91-25, Jayang-Dong, Gwangjin-Gu",5086,-7475,,37.53247659,127.065054,Seoul,Republic Of Korea,
Dream Bike,"No.108, Cheongwon Lakeville, 727-2, Janghang-Dong, Ilsandong-Gu",10366,-10395,,37.66481499,126.7682795,Goyang-Si,Republic Of Korea,
CYCLE - Die Radexperten Emanuel Oehring,Weinstr. 5,83022,+49 803114573,,47.8576378,12.1284425,Rosenheim,Germany,info@cycle-rosenheim.de
BROMPTON JUNCTION München,Wörthstraße 11,81667,+49 8944119906,,48.1316844,11.5993718,München,Germany,hello@muenchen.brompton.de
Les Cyclistes Branchés - Charenton,74 Rue de Paris,94220,+33 973521725,,48.82275,2.41204,Charanton Le Pont,France,charenton@les-cyclistes-branches.com
GS Velo Inh. Frank Flügel,Striesener Str. 49,1307,+49 3513143643,,51.0471541,13.7716851,Dresden,Germany,info@gs-velo.de
Tandart Sport,200 Rue du Phare du Bout du Monde,80440,+33 322430810,,49.86696,2.36202,Boves,France,d.tandart.giant@outlook.fr
Ebikelovers Porto,Rua de Rodrigues Sampaio 176,4000-425,+351 910096919,,41.1488758,-8.6120774,Porto,Portugal,ebikelovers.porto@gmail.com
Brompton Junction Shanghai (Kerry Centre),"S1-01B, Jing'an Kerry Centre, 1238 Mid-Yan'an Road",200052,+86 2163128937,,31.22316033,121.4492296,Shanghai,China,ken.sun@bromptonchina.cn
Brompton Junction Beijing,"LG2-27, No. 9, Dongdaqiao Road",100020,+86 1085626552,,39.92070889,116.4503075,Beijing,China,heming.wang@bromptonchina.cn
Halfords Nottingham 0855,Victoria Retail Park,NG4 2PE,+44 1159400811,,52.9617861,-1.0759691,Nottingham,United Kingdom,general.0855-nottingham@halfords-stores.co.uk
Junction Paris,85 Rue de Rivoli,75001,+33 142219614,,48.8605033,2.3416155,Paris,France,paris@bromptonjunction.com
Cyclable Troyes,5 Boulevard du 1er Ram,10000,+33 781323509,,48.292091,4.07287,Troyes,France,troyes@cyclable.com
Pro Bicycle,Jl. Raya Pasar Jumat Lebak Bulus No. 45 B-C,12310,+62 217663029,,-6.288833717,106.7731993,Jakarta,Indonesia,info@pro-bicycle.com
e-motion e-Bike Welt Saarbrücken,Peter-Zimmer-Straße 3,66123,+49 68138376457,,49.227671,7.018396,Saarbrücken,Germany,saarbruecken@emotion-technologies.de
e-motion e-Bike Welt Pforzheim,Kaulbachstr. 51-53,75175,+49 72311672284,,48.88622,8.73748,Pforzheim,Germany,pforzheim@emotion-technologies.de
e-motion e-Bike Welt Düsseldorf,Niederrheinstraße 211,40474,+49 21122966966,,51.283078,6.74062,Düsseldorf,Germany,dus@emotion-technologies.de
e-motion e-Bike Welt Schleswig,Husumer Str. 2,24837,+49 4621482628,,54.523968,9.542024,Schleswig,Germany,schleswig@emotion-technologies.de
e-motion e-Bike Welt Stuttgart,Kanalstr. 55,73728,+49 71190122876,,48.736558,9.312458,Stuttgart,Germany,stuttgart@emotion-technologies.de
e-motion e-Bike Welt Gießen,Carl Benz Str. 5,35440,+49 64036099500,,50.538477,8.656322,Linden,Germany,giessen@emotion-technologies.de
e-motion e-Bike Welt Werder,Adolf-Damaschke-Straße 56/58,14542,+49 33274372080,,52.391074,12.92952,Werder,Germany,werder@emotion-technologies.de
e-motion e-Bike Welt München West,Geiselbullacher Str. 2A,82140,+49 81424485850,,48.225982,11.333247,Olching,Germany,muenchen-west@emotion-technologies.de
e-motion e-Bike Welt Hanau,Johann-Carl-Koch-Str. 7,63452,+49 61819911990,,50.145883,8.941988,Hanau,Germany,hanau@emotion-technologies.de
e-motion e-Bike Welt Frankfurt Süd,Strahlenberger Weg 16,60599,+49 6924247887,,50.10345,8.70231,Frankfurt am Main,Germany,frankfurt-sued@emotion-technologies.de
e-motion e-Bike Welt Moers,Greefstr. 1-3,47441,+49 28416562265,,51.454307,6.634538,Moers,Germany,moers@emotion-technologies.de
e-motion e-Bike Welt Erding,Berghamer Str. 8,85435,+49 81222259668,,48.275232,11.897098,Erding,Germany,erding@emotion-technologies.de
e-motion e-Bike Welt Braunschweig,Wilhelmstraße 1,38100,+49 53147230024,,52.265983,10.527446,Braunschweig,Germany,braunschweig@emotion-technologies.de
e-motion e-Bike Welt München Süd,Wettersteinstraße 16,82024,+49 8950072800,,47.971198,11.654722,Taufkirchen,Germany,muenchen-sued@emotion-technologies.de
Bike Republic Grimbergen,Vilvoordsesteenweg 307,1850,+32 33376698,,50.92685,4.39237,Grimbergen,Belgium,grimbergen@bikerepublic.be
Pastel Richer,"4, Rue Richer",75009,+33 183960650,,48.87408,2.34747,Paris,France,hello.richer@pastel-cycles.com
Cycle Loft,"Middlesex Commons, 43 Middlesex Turnpike",1803,781-272-0870,,42.4706531,-71.2078917,Burlington,United States,
Urban Bicycle Gallery,801 Durham Drive,77007,713 863 0991,,29.7721302,-95.4100318,Houston ,United States,
Green Fleet Bicycle Shop,934 Jefferson St,37208,615-379-8687,,36.17271,-86.79432,Nashville,United States,
Holland's Bicycles,977 Orange Ave.,92118,619-435-3153,,32.68589,-117.17939,Coronado,United States,
Perennial Cycle (MN),3342 Hennepin Avenue,55408,612-827-8000,,44.941596,-93.2984694,Minneapolis,United States,
Ciclo Urbano - Bompton Dealer,R. Artur de Azevedo 1325,05404-013,+55 1130860375,,-23.5640523,-46.6860044,São Paulo,Brazil,pinheiros@ciclourbano.com.br
Sotto Sopra,"via Guido Bettinazzi, 2",38062,+39 0464516226,,45.9200749,10.8884624,Arco,Italy,dayanaceschia@hotmail.com
Sotto Sopra - Arco,Via vergolano 33,38062,+39 0464516226,,45.919514,10.882509,Arco,Italy,dayanaceschia@hotmail.com
Bike Republic Medan,Jalan Gagak Hitam No. 129/131,20122,+62 85263981873,,3.584087723,98.63103782,Medan,Indonesia,bikerepublic@suryabumipermata.com
Max Bike Shop,Ruko Diamond JI. AP. Pettarani,90231,+62 85240436374,,-5.153778871,119.4375447,Makassar,Indonesia,makasar@suryabumipermata.com
Bike Haus Semarang,JI. MT. Haryono No. 555A,50136,+62 248456918,,-6.990831266,110.4317282,Semarang,Indonesia,bikehaus@suryabumipermata.com
Balfe's Bikes - Kingston,36-40 Richmond Road,KT2 5EE,+44 2045315552,,51.41394747,-0.300529292,Kingston Upton Thames,United Kingdom,kingston@balfesbikes.co.uk
Mammoth Cantabria,"Pol. Ind. Las Esprilla, Nave 1A",39608,+34 942130300,,43.43929922,-3.894798304,Igollo de Camargo,Spain,santander.esprilla@mammothbikes.com
Mammoth Vitoria,"C/ Juan de Garay, 7",1012,+34 945101990,,42.8601098,-2.6770344,Vitoria-Gasteiz,Spain,vitoria.garay@mammothbikes.com
Mammoth Bilbao,"C/ Licenciado Poza, 60",48013,+34 944701940,,43.2632405,-2.9453516,Bilbao,Spain,bilbao.pozas@mammothbikes.com
Mammoth Villalba,"Avda. Reina Victoria, 39",28430,+34 918513938,,40.6390653,-4.0226543,Alpedrete,Spain,madrid.villalba@mammothbikes.com
Mammoth Sevilla (Arjona),Calle Arjona 8,41001,+34 954560095,,37.389265,-6.0026971,Sevilla,Spain,sevilla.arjona@mammothbikes.com
Mammoth Córdoba,"Avenida Al-Nasir, 21 local 1",14006,+34 957853127,,37.8957141,-4.7750783,Córdoba,Spain,cordoba.alnasir@mammothbikes.com
Cycle Oxygen,"1 Stadium Place, Unit #01-05",397628,+65 66672678,,1.302585464,103.8736261,Singapore,Singapore,cycleoxygensg@gmail.com
SPORTER FLAGSHIP STORE TREVISO,Via Eroi Podrute 2/4/6,31057,+39 0422362300,,45.652161,12.3078632,Silea,Italy,officina125@sportler.com
El Corte Ingles Madrid,"Calle de Raimundo Fernandez Villaverde, 79",28003,+34 914188800,,40.446491,-3.69727,Madrid,Spain,gaspar_mariblanca@elcorteingles.es
Robi Bike,Via Vittorio Veneto197,32100,+39 04371837175,,46.1510744,12.2286088,Belluno,Italy,info@robi.bike
Komut Bikes,Rue Vanderkindere 395,1180,+32 23434757,,50.81426,4.36096,Uccle,Belgium,hello@komut.be
Balfe's Bikes - Chiswick,124-126 Chiswick High Rd,W4 1PU,+44 2038701005,,51.49311236,-0.252767949,Chiswick,United Kingdom,chiswick@balfesbikes.co.uk
RE Beijing (Kerry Centre store),"1st Floor, Kerry Centre Shopping Mall, No 1. Guang Hua Road",100020,+86 18611865868,,39.914277,116.460492,Beijing,China,liuzhifei9999@163.com
RE Beijing (Sanlitun store),"Unit S5-15, 1st Floor, Building 5, Courtyard 19, Taikoo Li South District, Sanlitun Road",100020,+86 18611865868,,39.93625607,116.4553545,Beijing,China,liuzhifei9999@163.com
RE Beijing (Finance Street),"No. L113-116, 1st Floor, Financial Street Shopping Center, No.2 JinchengFang Street",100020,+86 18611865868,,39.914938,116.3623359,Beijing,China,liuzhifei9999@163.com
Tadenberg Bikes,Mörkenstrasse 55,22767,+49 4023969442,,53.5495782,9.943037,Hamburg,Germany,crew@tadenberg.de
M-CYCLE Beijing (Xizhimen),"Floor 5, XiZhiMen Street",100035,+86 18601258775,,39.935989,116.3552689,Beijing,China,49142786@qq.com
M-CYCLE Beijing (Zhongguancun),"Zhongguancun Mall, 19 Zhongguancun Street",100035,+86 18601258775,,39.979434,116.314045,Beijing,China,49142786@qq.com
Ouroboros Goods,"Building 2, Beiren Outdoor Cultural Industrial Park",100062,+86 18511850831,,39.8927732,116.4259898,Beijing,China,wpz831@sohu.com
AITA Cycle (Beijing),"No.88, 798 Art Zone, No.3 Taoci Street",100020,+86 18611831587,,39.984138,116.49609,Beijing,China,1061537905@qq.com
WeCycle (Libao Plaza),"Building 2, Libao Plaza, No. 365 Xihong Road",200021 ,+86 13588426435,,31.1968142,121.3115723,Shanghai,China,Sally.Shen@stctri.com
WeCycle (Yuanshen),"First Floor, East District, Yuanshen Center, No. 9 Yushan Road",200120,+86 18017947831,,31.230264,121.5381839,Shanghai,China,jerry.zhang@stctri.com
WeCycle (Kerry City),"L118 Pudong Kerry City, 1378 Huamu Road",200120,+86 18017947831,,31.213676,121.562774,Shanghai,China,jerry.zhang@stctri.com
ALLUNEEDNOW (Shanghai),"Room 111-2 Xiansuo, No. 5 Yanping Road, Jing'An District",200002,+86 15021840428,,31.23208,121.43871,Shanghai,China,yannick1983@live.cn
Shenyang Qiqiba,"Door 5, No. 89, Nanyanghu Street",110000,+86 13998889711,,41.7633159,123.31672,Shenyang,China,2319429979@qq.com
Brompton Junction Shenyang (K11),"L1 A3007, No.2 Jia-1, Bolan Road",110002,+86 13998889766,,41.805699,123.431472,Shenyang,China,qqb778778@163.com
Yinyan Space (Hangzhou),"No.27, 2nd Floor, LongHu TianJie Mall",310000,+86 13414977829,,30.2741499,120.15515,Hangzhou,China,wu_ei@foxmail.com
NoXBase Hangzhou,"No.105 Wulinli, Wulin Road",310000,+86 13588426435,,30.33416,120.10201,Hangzhou,China,leo.li@noxbase.com
Velo Art (Zhuhai),"Store 1616, Jiuzhou Avenue ",519000,+86 18675820114,,22.2344877,113.5400876,Zhuhai,China,sun@veloart.cn
Shenzhen Junda,"6-7 Haixiu Road, Building 6, Xilongwan Garden, No.3 Jiaan Road",518000,+86 13417338856,,22.547852,113.889927,Shenzhen,China,13417338856@139.com
MCC Suzhou,"109-1, Sport Cultural & Creative Industrial Park, No.188 Panxu Road",215004,+86 18626222722,,31.281522,120.612783,Suzhou,China,18626222722@qq.com
BICICLI Cycling Concept Store,Bertolt-Brecht-Platz 2,10117,+49 3025763970,,52.522442,13.38629,Berlin,Germany,kontakt@bicicli.de
Cosmic Bikes Inc.,4641 N. Milwaukee Ave.,60630,773-930-4076,,41.96511,-87.75804,Chicago,United States,
MCC Nanjing,"101-102, Building 9-1, Innovative Park, No.66 Laifeng Street",210004,+86 18936049758,,32.0235241,118.7709894,Nanjing,China,wjgshixiong@163.com
RE Shanghai (Raffles),"No.12, 1st Floor, Raffles North Bund, No.55 Haimen Road",200000,+86 18611865868,,31.23220611,121.4765555,Shanghai,China,liuzhifei9999@163.com
Cyclable Rochefort,8 avenue marcel dassault,17300,+33 579979890,,45.944835,-0.960104,Rochefort,France,rochefort@cyclable.com
Cyclable Bordeaux Ouest,228 Avenue de la Marne,33700,+33 556991148,,44.83225,-0.6411,Mérignac,France,bordeaux-ouest@cyclable.com
El Corte Ingles Marbella,"C/Ramón Areces,s-n",29660,+34 952909990,,36.4903846,-4.9520721,Puerto Banús,Spain,gaspar_mariblanca@elcorteingles.es
RE Beijing (Joy City store),"1F-31 Store, ChaoYang Joy City Mall, No. 101 Chaoyang Road",100020,+86 18611865868,,116.5183333,39.92403698,Beijing,China,liuzhifei9999@163.com
Bicyclic Namur,649 Chaussée de Liège,5100,+32 81217050,,50.46416,4.90624,Jambes,Belgium,namur@bicyclic.be
Bicyclic Liege Centre,"Rue Saint Michel 16,",4000,+32 43880031,,50.64474,5.57197,Liège,Belgium,liege@bicyclic.be
Bicyclic Marche,"Chaussée de Liège, 97",6900,+32 43880031,,50.23916,5.34513,Marche-en-Famenne,Belgium,marche@bicyclic.be
Bicyclic Remouchamps,"Square Philippe Gilbert, 3",4920,+32 43880031,,50.48374,5.70071,Remouchamps,Belgium,remouchamps@bicyclic.be
Bicyclic Hognoul,Rue Chaussée 2b,4342,+32 43880031,,50.68146,5.46753,Hognoul,Belgium,hognoul@bicyclic.be
Mammoth Valencia,"Avinguda de Pérez Galdos, 115",46018,+34 963921138,,39.4719369,-0.3939008,Valencia,Spain,valencia.galdos@mammothbikes.com
Ride Bike Diest,Nijverheidslaan 21,3290,+32 13306316,,50.98966,5.04175,Diest,Belgium,info@ridebikes.be
BIKECORP,"Ruko Surya Inti Permata II A 1-2, Jl. Mayjen HR. Muhammad No.179, Pradahkalikendal, Dukuhpakis",60226,+62 82123483200,,-7.283080235,112.6863728,Surabaya,Indonesia,bikecorp@suryabumipermata.com
Localand (Xi'an),"No. 305, Xi’an Glorious Plaza, Keji Road, Yanta District",710000,+86 18629148515,,34.23709,108.89337,Xi'an,China,dreamerdingrui@gmail.com
Baike (Dalian),"No. 91, Haizhiyun Road, Zhongshan District",116000,+86 17709833266,,38.901317,121.70333,Dalian,China,17709833266@163.com.cn
Cyclable Services,10 route de Polygone,67000,+33 388344753,,48.57129,7.75601,Strasbourg,France,strasbourg-etoile@cyclable.com
Cyclable Béthune,ZAC du Beaupré – Le Village 2800,62131,+33 695714209,,50.50977,2.63432,Verquin,France,bethune@cyclable.com
Giroscop,45 Boulevard de Suisse,31200,+33 531614286,,43.6144,1.42044,Toulouse,France,contact@giroscop.com
Altermove Paris Luxembourg,51 Rue Claude Bernard,75005,+33 145353075,,48.84063446,2.345384127,Paris,France,paris-jardin-luxembourg@altermove.com
Altermove Lille,1 Rue des Arts,59100,+33 320511513,,50.6395412,3.0648987,Lille,France,lille@altermove.com
Altermove Lyon,41 Avenue Maréchal de Saxe,69006,+33 482539669,,45.7642282,4.8450388,Lyon,France,lyon@altermove.com
Holland Bikes Bordeaux Nansouty,182 cours de la Somme,33800,+33 951329037,,44.82354,-0.57237,Nouvelle Aquitaine,France,bordeaux@hollandbikes.com
Balfe’s Bikes - Hackney,164 - 167 Mare St,E8 3RG,+44 2038331544,,0,0,Hackney,United Kingdom,hackney@balfesbikes.co.uk
Alltricks Store Coignières,"Forum de Coignières, Rue des Frères Lumière",78310,+33 185400023,,48.75674,1.93542,Coignières,France,seb@alltricks.com
Alltricks Store Issy-les-Moulineaux,9 rue Auguste Gervais,92130,+33 130485282,,48.823515,2.273309,Issy-les-Moulineaux,France,dimitri.troine@alltricks.com
e-motion e-Bike Welt Remscheid,Büchelstraße 54-58,42855 ,+49 21914372515,,51.19702296,7.17177274,Remscheid,Germany,remscheid@emotion-technologies.de
e-motion e-Bike Welt Wedel,Langenkamp 28,22880,+49 22164000030,,53.57621312,9.729091939,Wedel,Germany,wedel@emotion-ebikes.de
TUCC Bali,"Jl. Teuku Umar Barat, No. 777 Denpasar Barat",80119,+62 81237594293,,-8.6815112,115.1914627,Bali,Indonesia,balitucc6@gmail.com
Bicycle Store - Etoile,22 avenue de la Grande Armée,75017,+33 130383118,,48.87541,2.29103,Paris,France,contact@bicyclestore.fr
Fahrrad Franz GmbH Griesheim,Flughafenstr. 14,64347,+49 61557090038,,0,0,Griesheim,Germany,florian.schaefer@fahrrad-xxl.de
Evans Cycles Cwmbran,4 Ffordd Cwmbran,NP44 3JQ,+44 3439092909,,51.6541051,-3.028148946,Cwmbran,United Kingdom,workshop.cwmbranev@evanscycles.com
Evans Cycles Stockport,The Courts,SK1 1UD,+44 3439092741,,53.41314071,-2.157255777,Stockport,United Kingdom,manager.stockportev@evanscycles.com
Evans Cycles St Helens,Unit 5 Ravenhead Retail Park,WA9 5EE,+44 3439092708,,53.44582442,-2.733076954,St Helens,United Kingdom,manager.sthelensev@evanscycles.com
PG Cycle Spot,"102-C-1, NEW WORLD PARK, JALAN BURMAH",10050,+60 124889498,,5.42047449,100.3268117,Georgetown,Malaysia,thamnk900@gmail.com
Cyclable Issy les Moulineaux,75 avenue Victor Cresson,92130,+33 672043943,,48.82118,2.26174,Issy Les Moulineaux,France,theophile.gavarry@cyclable.com
Gregarious,"B1, Dayuan Central Park, No.777, Tianfu Second Street, Regular, Gaoxin District",610095,+86 15281002425,,30.5722599,104.0665099,Chengdu,China,1222@163.com
Brompton Junction Shenzhen (One Avenue）,"No.348, Fuhuayi Road, One Avenue Zhuoyue Center",518000,+86 13828763982,,22.5411828,114.05863,Shenzhen,China,yao.cai@jszhe.com
2 roues vertes,2939 Route de Baziège,31670,+33 771920855,,43.54745,1.51468,Labège,France,contact@2rouesvertes.fr
Fietsen Wildiers Gent, Brugsesteenweg 652,9030,+32 92390100,,51.07608689,3.678770913,Mariakerke,Belgium,gent@fietsenwildiers.be
Pedaleur Velp,Nordlaan 32,6881 RN,+31 263620001,,51.99444387,5.963427641,Velp,Netherlands,c.beltman@pedaleur.nl
Pro -M SAS di Biffi Giovanni & C.,Gallarate 108,20151,+39 0233404547,,45.49673,9.13291,Milano,Italy,eberswalde@emotion-technologies.de
Bike Republic Groot-Bijgaarden,Robert Dansaertlaan 9b,1702,+32 26811695,,50.86680488,4.274937439,Groot - Bijgaarden,Belgium,groot-bijgaarden@bikerepublic.be
Mammoth Sant Boi,Calle Hortells 2D 2E,8830,+34 936071990,,41.396192,2.164604,Sant Boi de Llobregat,Spain,barcelona.santboi@mammothbikes.com
Brickell Bikes,70 SW 12 St,33130,+1 3053733633,,25.76263791,-80.19437844,Miami,United States,info@brickellbikes.com
Happy Owl Cycle (Changi),482 Changi Road,419895,+65 87789528,,1.319251993,103.9135802,Singapore,Singapore,happyowl.cycle@gmail.com
Happy Owl Cycle (Oxley),"65 Ubi Road 1, #03-51, Oxley Bizhub",408729,+65 87781939,,1.33248977,103.8903307,Singapore,Singapore,happyowl.cycle@gmail.com
Fahrrad XXL Emporon GmbH & Co. KG,Filiale Dresden Nord,1139,+49 351288580,,51.06805395,13.68997689,Dresden,Germany,j.helbig@fahrrad-xxl.de
Fahrrad XXL Emporon GmbH & Co. KG,Filiale Halle,6112,+49 34523937240,,51.47917565,12.00788266,Halle / Saale,Germany,j.helbig@fahrrad-xxl.de
Fahrrad XXL Emporon GmbH & Co. KG,Filiale Chemnitz,9111,+49 37136777390,,50.8356546,12.91567323,Chemnitz,Germany,j.helbig@fahrrad-xxl.de
S.A.R.L. DROP,25 Rue de la République,19100,+33 643487819,,45.15785,1.53122,Brive-La-Gaillarde,France,emeric@shopdrop.fr
Altermove Reims,6 Parvis Camille Muffat (UCPA Sport Station),51100,+33 752033453,,49.25834,4.0389,Reims,France,contact.altermovereims@gmail.com
A Fudge Addlestone,75 Station Road,KT15 2AR,+44 1932820716,,51.371785,-0.4913353,Addlestone,United Kingdom,addlestone@fudgescycles.com
Ebikelovers Cascais,"vª, Av. Infante Dom Henrique 1027",2750-169,+351 910093103,,38.7043186,-9.4347919,Cascais,Portugal,ebikeloverscascais@gmail.com
Urkai Inc.,Unit 2-1062 860 Cumberland Ave,L7N 3V1,+1 8002200150,,43.3553637,-79.791367,Burlington,Canada,hello@urkai.com
The Bike Shop Bali,"Ikat Plaza, Jl. Bypass Ngurah Rai No.505, Pemogan, Denpasar Selatan",80221,+62 3618465531,,-8.721781308,115.1915021,Bali,Indonesia,info@thebikeshopbali.com
Bike Republic Veurne,Vaartstraat 19,8630,+32 58460098,,51.07152096,2.67101481,Veurne,Belgium,veurne@bikerepublic.be
Cyclable Le Havre,58 avenue René Coty,76600,+33 628373180,,49.49731,0.11293,Le Havre,France,pierre.viard@cyclable.com
Ciclissimo Basel,"Hammerstrasse 142,",4057,+41 616831515,,47.56757165,7.595236224,Basel,Switzerland,basel@ciclissimo.ch
FALTRAD TÜBINGEN,Pfleghofstraße 5,72070,+49 70715684308,,48.520662,9.056817,Tübingen,Germany,mail@faltrad-tuebingen.de
LAP Bikes,47 Little Britain,EC1A 7BH,+44 2083966983,,51.5052208,0.0166861,London,United Kingdom,info@lapbikes.com
Mega Bike,A. Bardelli 4,33035,+39 0432544523,,46.0863512,13.181996,Martignacco,Italy,commerciale@megaintersport.it
E4.bike GmbH,Marktstraße 10,74523,+49 79197810425,,49.11481715,9.737374216,Schwäbisch Hall,Germany,info@e4.bike
Bike Factory (Cheonan),"1F, 7, Buldang 16-gil, Seobuk-gu, Cheonan-si, Chun",31169,+85 1058867878,,0,0,Cheonan,Republic Of Korea,limpro3428@naver.com
Edinburgh Bicycle Cooperative Bruntsfield,8 Alvanley Terrace,EH9 1DU,+44 1312283565,,55.937721,-3.20273,Edinburgh,United Kingdom,supplier-bruntsfield@edinburghbicycle.com
Bikes & Coffee,Retail 20 G/F Uptown Parade 9th Ave. corner 36th S,1634,+63 9563616598,,0,0,Taguig City,Philippines,hcocyclery.info@gmail.com
Just Ride (Ulsan),"1F, 22, Saecheonnyeon-daero 1249beon-gil, Buk-gu,",37585,+82 1029401557,,0,0,Ulsan,Republic Of Korea,seasun1@naver.com
Antonio Ramon Molina Marquez,Calle Molinos 20,18009,+34 958568020,,37.1730568,-3.5930526,Granada,Spain,bicicletaslaestacion@gmail.com
Tracce Bike Shop,Corso Montegrappa,16137,+39 0103624782,,44.4108197,8.9490351,Genova,Italy,info@traccebikes.com
British Cycle Square,"59/115-6 Prachacheun Road, 12 Tungsonghong Laksi",10210,+66 25915987,,13.869128,100.5488848,Bangkok,Thailand,cs@britishcyclesquare.com
South Downs Bikes Broadwater,41 Broadwater Street West,BN14 9BY,+44 1903298242,,50.8317639,-0.379828006,Worthing,United Kingdom,broadwater@southdownsbikes.com
Bike Republic Turnhout,38 Parklaan Unit 1B,2300,+32 14750833,,51.31220578,4.938387883,Turnhout,Belgium,turnhout@bikerepublic.be
Bike Gallery,74 Auburn Parade,3123,+61 398822031,,-37.83201,145.05005,Melbourne,Australia,sales@bikegallery.com.au
Cyclable Aix En Provence,13 RUE FERNAND DOL,13100,+33 442675090,,43.52597,5.45182,Aix En Provence,France,aix-en-provence@cyclable.com
Dorleta Zubero Aldecoa,c/ Diputación 3,48009,+34 944231686,,43.26290562,-2.932060297,Bilbao,Spain,ciclos-zubero@hotmail.com
Bicycle Store - République,17 Boulevard du Temple,75003,+33 952663165,,48.8641902,2.3657421,Paris,France,contact@bicyclestore.fr
Okocicle,"C. del Padre Francisco Palau y Quer, 1",28046,+34 665041376,,40.47426639,-3.686075847,Madrid,Spain,info@okocicle.com
JC Bike 48,"Jl. Abdul Rahman Saleh No 48, Husen Sastranegara, Kec. Cicendo",40174,+62 81212889926,,-6.907405733,107.5827085,Bandung,Indonesia,jcbicycle48@gmail.com
Jogja Bike Gallery,"Jl. Letjen Suprapto No 369 (Ruko Ambasador), Pringgokusuman, Gedong Tengen",55272,+62 87780999789,,-7.790281269,110.3576478,Yogyakarta,Indonesia,jogjabikegallery@gmail.com
Mad Dogs & Englishmen,"Mill Valley Lumber Yard, 129 Miller Avenue, Suite 802 ",94941,+1 4159685334,,37.9035675,-122.5441572,Mill Valley,United States,info@maddogsenglishmen.com
Mad Dogs & Englishmen,1080 Coast Village Road ,93108,+1 8319203197,,34.4217363,-119.6489501,Santa Barbara,United States,info@maddogsenglishmen.com
Mad Dogs & Englishmen,"Monterey Plaza Hotel, 400 Cannery Row, Suite C ",93940,+1 8319203197,,36.6121333,-121.8979275,Monterey,United States,info@maddogsenglishmen.com
fahrrad.de Store Stuttgart,Rotenwaldstraße 154,70197,+49 71140042403,,48.76619288,9.148520831,Stuttgart,Germany,stuttgart@fahrrad.de
Ebike Gibraltar,Imperial Ocean Plaza,GX11 1AA,+350 56004948,,36.14613985,-5.35391089,Gibraltar,Gibraltar,info@ebike-gibraltar.com
Mike's Bikes Sacramento,1411 I Street,95814,+1 9164462453,,38.5801099,-121.4869007,Sacramento,United States,
Zweirad JOOS - E-Bike-Center Immenstaad,Gehrenbergstraße 1B,88090,+49 75457499984,,47.67158295,9.377939756,Immenstaad am Bodensee,Germany,verkauf.immenstaad@zweirad-joos.de
Zweirad JOOS - Hauptfiliale Radolfzell,Schützenstraße 11+14,78315,+49 7732823680,,47.73906895,8.968907716,Radolfzell am Bodensee,Germany,verkauf.radolfzell@zweirad-joos.de
Zweirad JOOS - E-Bike-Center,Schützenstraße 11+14,78315,+49 77328236870,,47.73906895,8.968907716,Radolfzell am Bodensee,Germany,ebc.radolfzell@zweirad-joos.de
Zweirad JOOS - Ravensburg,Eywiesenstraße 5/12,88212,+49 77319761943,,47.7926359,9.618321836,Ravensburg,Germany,verkauf.ravensburg@zweirad-joos.de
Zweirad JOOS - Lagerverkauf Gottmadingen,Industriepark 301,78244,+49 77319761943,,47.73860602,8.788418444,Gottmadingen,Germany,verkauf.gottmadingen@zweirad-joos.de
Zweirad JOOS - Lagerverkauf Konstanz,Am Dachsberg 12,78479,+49 75318076718,,47.69996666,9.118345549,Konstanz-Reichenau,Germany,verkauf.konstanz@zweirad-joos.de
Bike Republic Oudsbergen,117 Weg op Bree,3670,+32 011792070,,51.10257779,5.537602541,Oudsbergen,Belgium,oudsbergen@bikerepublic.be
Bike Republic Sint-Denijs-Westrem,Kortrijksesteenweg 1078,9051,+32 092470471,,51.02177476,3.692974177,Gent,Belgium,sint-denijs-westrem@bikerepublic.be
Cyclable Parly 2 E.T.'S Bike,6 Avenue Charles de Gaulle,78150,+33 952694838,,48.8291801,2.1186054,Le Chesnay-Rocquencourt,France,parly2@cyclable.com
Sigma Sport Electric store,7-9 Thames Street,KT1 1PH,+44 3330068833,,51.4101818,-0.306860319,Kingston upon Thames,United Kingdom,kingston@sigmasports.com
Brompton Junction Shenzhen (One Avenue),"No.348, Fuhuayi Road, One Avenue Zhuoyue Center",518000,+86 13828763982,,22.5411828,114.05863,Shenzhen,China,yao.cai@jszhe.com
Bicyclic Nivelles,1 Rue du Commerce,1400,+32 43880031,,50.59479191,4.366913588,Nivelles,Belgium,nivelles@bicyclic.be
Borneo Bike Shop,"Grandcity Ruko Palladium J-01, Batu Ampar, Kec. Balikpapan Utara, Kalimantan Timur",76114,+62 81254552300,,-1.22303133,116.8780032,Balikpapan,Indonesia,borneobikeshop@gmail.com
alleliebenfahrrad GmbH,Villastr. 14,70190,+49 71147988737,,48.7941739,9.2030228,Stuttgart,Germany,service@alf-stuttgart.de
VÉLO 360,Im Gellert 65a,85296,+49 1728205113,,0,0,Rohrbach,Germany,info@velo360.bike
Bike Boutique Frankfurt,Gallusanlage 7,60547,+49 6997766044,,50.10974457,8.671409758,Frankfurt am Main,Germany,beratung@bikeboutique.bike
JERRY BIKE Rental,75 Avenue Georges Pompidou,40130,+33 659140224,,43.65379,-1.44099,Capbreton,France,jerry@jerry-bike-rental.com
Holland Bikes Lyon,28 Quai Victor Augagneur,69003,+33 472042249,,45.757093,4.840762,Lyon,France,lyon@hollandbikes.com
Tao Bike,"Avenida Madrid 26, Local 39",3503,+34 966175739,,38.53527,-0.109528,Benidorm,Spain,taotourism@gmail.com
Terre de Cycle,12 Rue de la Briquerie,44350,+33 0240601339,,47.3237009,-2.4122204,Guérande,France,terredecycle@orange.fr
WeCycle (Wuhan K11),"L100-L102, K11 Art Mall, No. 628 Jiefang Avenue",430030,+86 13971270954,,30.57894709,114.265053,Wuhan,China,sally.shen@stctri.com
WeCycle (Ningbo The MixC),"L106, The MixC, No. 265 Qinghe Road",315020,+86 13162610403,,29.90666887,121.5594135,Ningbo,China,sally.shen@stctri.com
Brompton Junction Chengdu (Yanlord),"L108, Yanlord Area A, No. 1 South Renmin Road",610011,+86 18581898778,,30.89009378,114.371495,Chengdu,China,yao.cai@jszhe.com
Cycles Cesbron Saumur,"Rue de l'Avenir,  Zone du Champ Blanchard",49400,+33 241676932,,0,0,Distré,France,info@cyclescesbron.fr
Ridewill SRL,Via Socrate 6,22070,+39 0315476941,,45.7606022,9.0813804,Casnate con Bernate,Italy,info@ridewill.it
e-motion e-Bike Welt Ismaning,Durachweg 8,85737,+49 89215466911,,0,0,Ismaning,Germany,ismaning@emotion-technologies.de
Bikeary Bicycle Lifestyle,77a Sct. Tobias Street,1103,+63 9190990418,,14.63752251,121.0315026,Quezon City,Philippines,thegals@bikeary.com
Loyalindo,"Jl. Gajah Mada No.161-163, Kec. Pontianak Sel.",78122,+62 561738394,,-0.04134,109.34548,Pontianak,Indonesia,loyalindo@gmail.com
Conte's Bike Shop DC Navy Yard,1331 4th St. SE. Suite 107 ,20003,+1 2025589866,,38.8743138,-77.0009351,Washington DC,United States,d.conte@contebikes.com
Conte's Bike Shop DC Logan Circle,1412 Q Street NW,20009,+1 2023872453,,38.9109271,-77.0325857,Washington DC,United States,d.conte@contebikes.com
Conte's Bike Shop  VA Old Town Alexandria,1100 King Street,22314,+1 5714827701,,38.8053613,-77.0516116,Alexandria,United States,c.ebenkamp@contebikes.com
Conte's Bike Shop DC Cathedral Heights,3410 Wisconsin Avenue NW,20016,+1 2023910804,,38.9350775,-77.0729706,Washington DC,United States,jchaale@contebikes.com
808 Cycles,"9 King Albert Park, #02-01 KAP Mall",598332,+65 98208642,,1.337238569,103.7792166,Singapore,Singapore,sales@808cycles.com
Le Trinitain,44 Cours des Quais,56470,+33 256543057,,47.59004,-3.02932,La Trinité-sur-Mer,France,contact@letrinitain.bzh
En Selle Marcel - Aix En Provence,48 Avenue Armand Lunel,13100,+33 442603158,,43.52645,5.4414,Aix-en-Provence,France,lunel@ensellemarcel.com
Evans Cycles Leeds Infirmary,14 Infirmary Street,LS1 2JP,+44 3439093269,,53.79739,-1.5491,Leeds,United Kingdom,manager.leedsinfirmaryev@evanscycles.com
ENJOYYOURBRANDS GmbH,Eleonorenstr. 20,30449,+49 51120029090,,52.3683759,9.7157227,Hannover,Germany,service@enjoyyourbike.com
Zeno Lohmaier,Lilienthalstraße 19,85296,+49 84429211222,,48.60784849,11.57872959,Rohrbach,Germany,rainer.gerstmann@brompton.co.uk
Evans Cycles Keighley,53 Cavendish Street,BD21 3RB,+44 3439092788,,53.86796474,-1.906090767,Keighley,United Kingdom,manager.keighleyev@evanscycles.com
Pedales-Radstation,Babelsberger Straße 10,14473,+49 33188719917,,52.39273492,13.06543645,Potsdam,Germany,radstation@potsdam-per-pedales.de
Be Bike SARL,10 Lotissement Vulcalux,L8399,+352 661666007,,49.6469008,5.9555852,Windhof,Luxembourg,info@bebike.lu
Biker Drongen,144 Beekstraat,9031,+32 92863430,,0,0,Gent,Belgium,drongen@bikerfietsen.be
Auftragsrad GmbH,Roelckestraße 92,13088,+49 30549059692,,52.566101,13.46377,Berlin,Germany,service@auftragsrad.de
Pastel - Turbigo,38 Rue de Turbigo,75003,+33 171706159,,48.86476327,2.353373768,Paris,France,hello.turbigo@pastel-cycles.com
MUNIX FINEST BICYCLES PASING,Landsberger Straße 497,81241,+49 89588054230,,48.14621147,11.46429038,München,Germany,team@cycle-pasing.de
MUNIX FINEST BICYCLES & STILRAD°°,Leopoldstraße 154,80804,+49 89588054220,,48.17003289,11.58626814,München,Germany,info@munixfinestbicycles.de
Yinyan Space (Nanjing),"2F-27, Hexi Tianjie Mall, No.89 Yunlongshan Road",210000,+86 13414977829,,32.05,118.7667,Nanjing,China,wu_ei@foxmail.com
Evans Cycles Burton on Trent,30 Lichfield Street Burton upon Trent,DE14 3RH,+44 3439093268,,52.79974466,-1.633856913,Burton-on-Trent,United Kingdom,manager.burtonontrentev@evanscycles.com
Bikecafe,180 Corso Torino,10064,+39 0121398187,,44.88601476,7.338336173,Pinerolo,Italy,info@bikecafe.com
e-motion e-Bike Welt Schwarzenfeld,Böttgerstraße 48,92521,+49 9435301898800,,49.39141798,12.12776195,Schwarzenfeld,Germany,schwarzenfeld@emotion-technologies.de
RE Shanghai (Taikoo),"No.1-9, Taikoo Qiantan, No.500 Dongyu Road",200000,+86 18611865868,,31.155272,121.4818665,Shanghai,China,liuzhifei9999@163.com
Loto Cicli,Via San Giovanni Bono 41/a,46100,+39 3664893943,,45.17292591,10.78369427,Mantova,Italy,alberto.rovesti@gmail.com
En Selle Marcel Nice,1 Rue d'Italie,6000,+33 493802691,,43.70311,7.26625,Nice,France,italie@ensellemarcel.com
Yinyan Space (Nanjing),"2F-27, Hexi Tianjie Mall, No.89 Yunlongshan Road,",210000,+86 13414977829,,32.05,118.7667,Nanjing,China,wu_ei@foxmail.com
Shanghai RE (Taikoo),"No.1-9, Taikoo Qiantan, No.500 Dongyu Road, Pudong",200000,+86 18611865868,,31.155205,121.4782,Shanghai,China,liuzhifei9999@163.com
e-motion e-Bike Welt Offenburg,Heinrich-Hertz-Straße 13b,77656,+49 78163929980,,48.47463473,7.930157877,Offenburg,Germany,offenburg@emotion-technologies.de
Planet Sports - Grand Indonesia,"3A Floor, East Mall, Jl. M.H. Thamrin No.1, RT.1/RW.5, Kebon Melati, Menteng",10310,+62 2123580409,,-6.195556,106.821944,Jakarta,Indonesia,alvina.christina@mapactive.id
e-motion e-Bike Welt Inntal,Winhöringer Straße 21,84513,+49 15207703190,,48.26078418,12.60111709,Töging am Inn,Germany,inntal@emotion-ebikes.de
WeCycle (Jiuguang),"M101-5, No.2188 Gonghexin Road",200002,+86 18361289728,,31.27636719,121.4513057,Shanghai,China,sally.shen@stctri.com
Feral Cat Bicycle,"1F, 138-11, Munjeong-Dong, Songpa-Gu",138-200,+82 1026204842,,0,0,Seoul,Republic Of Korea,alena33@bikey.co.kr
bb5 HQ (YongSan),"1F, Jin-Yeong Bldg., 185-3, Seobinggo-Dong",4384,+82 264019770,,0,0,Yongsan-Gu,Republic Of Korea,ybjinpark@gmail.com
Factory One,"1F, 453, Jeungsan-ro, Eunpyeong-gu",3450,+82 24640254,,0,0,Seoul,Republic Of Korea,factoryonekr@gmail.com
Dream Bike,"No.108, Cheongwon Lakeville, 727-2, Janghang-Dong,",10366,+82 1091661301,,0,0,Goyang-Si,Republic Of Korea,dadame@nate.com
Full-Outer,"1F, 91-25, Jayang-Dong, Gwangjin-Gu",5086,+82 222055350,,0,0,Seoul,Republic Of Korea,fullouter@gmail.com
VeloFix,"332-110, Junghwa-2-Dong, Jungnang-Gu",2015,+82 7086155072,,0,0,Seoul,Republic Of Korea,marzocchi@naver.com
WECLE ChungDam Store,"1F, 37, Seolleung-ro 152-gil",135-100,+82 25485199,,0,0,Gangnam-gu,Republic Of Korea,wecle.yeouido@sanbadasports.co.kr
WECLE YeoUiDo Store,"B1F, 16, Gukjegeumyung-ro 8-gil",7330,+82 27805199,,0,0,"Yeongdeungpo-gu,",Republic Of Korea,wecle.store@sanbadasports.co.kr
Wecycle (Jiuguang),"M101-5, No.2188 Gonghexin Road",200002,+86 18361289728,,31.26851598,121.4538533,Shanghai,China,sally.shen@stctri.com
Velo Art (Chengdu),"B102-B103, No.28 Binsheng Street, Qingyang District",610011,+86 18675820114,,30.66170355,104.0586913,Chengdu,China,sun@veloart.cn
Evolution Bikes,334 Beaufort Street,6000,+61 861613899,,-31.94305895,115.866818,Perth,Australia,info@evolutionbikes.com.au
Jesler Bicycles -Taichung,"No. 32-18, Yongchun Road, Nantun District",408,+886 423806292,,24.14055996,120.6267782,Taichung,Taiwan (Province Of China),metroasis2006@gmail.com
SY Bike-Nantun,"1F., No.290, Fengfu Rd., Nantun District",408024,+886 424736261,,24.1336989,120.648385,Taichung City,Taiwan (Province Of China),syoungbike167290@gmail.com
Cycleworld,317 Concord Road,2138,+61 297396530,,-33.84829007,151.0896918,Concord West,Australia,sales@cycleworld.com.au
Cycles Cesbron Laval,"ZA de, La Bouteillerie",53940,+33 243909426,,48.065675,-0.80376,Saint-Berthevin,France,contact@cyclescesbron.fr
Monsieur Pignon Madame Guidon - Toulouse,32 Rue des Lois,31000,+33 561217932,,43.60588,1.44146,Toulouse,France,toulouse@monsieurpignonmadameguidon.com
Velo Art (Guangzhou),"Shop 105, 289 Art Space, Guangzhou Middle Avenue",510601,+86 18675820114,,23.123986,113.314721,Guangzhou,China,sun@veloart.cn
Little John Bikes Berlin-Steglitz,Rheinstraße 41,12161,+49 3085408950,,52.46530258,13.32903639,Berlin,Germany,berlin-steglitz@littlejohnbikes.com
Little John Bikes Falkensee,Spandauer Straße 112,14612,+49 35156349730,,52.56024543,13.12846899,Falkensee,Germany,falkensee@littlejohnbikes.com
VELOBOX GmbH,Bergstraße 8,29664,+49 51614811870,,0,0,Walsrode,Germany,info@velobox-walsrode.de
Conte's Bike Shop Arlington,3449 Wilson Blvd,22201,+1 5718003126,,38.8826596,-77.1016092,Arlington,United States,m.cox@contebikes.com
"The Electric Bike Shop, Battersea",324 Battersea Park Road,SW11 3BX,+44 02077389469,,51.47103976,-0.169603538,London,United Kingdom,battersea@theelectricbikeshop.co.uk
Mammoth Terrassa,Carretera de Montcada 398,8223,+34 937855068,,41.55737589,2.021054585,Terrassa,Spain,almacen.administracion@barrabes.com
Evans Cycles Stafford,Unit 1B/C Riverside Shopping Centre,ST16 3AL,+44 3439091987,,52.80508,-2.11223,Stafford,United Kingdom,manger.riversidestaffordev@evanscycles.com
Escapa Sabadell,Carrer de Montserrat 180,8201,+34 937451074,,41.54233173,2.104945506,Sabadell,Spain,infosabadell@biciescapa.com
Little John Bikes Berlin-Steglitz,Rheinstraße 41,12161,+49 3085408950,,52.46530258,13.32903639,Berlin,Germany,berlin-steglitz@littlejohnbikes.com
Little John Bikes Falkensee,Spandauer Straße 112,14612,+49 33224260117,,52.56024543,13.12846899,Falkensee,Germany,falkensee@littlejohnbikes.com
Velo Art (Huizhou),"No.4-6, Huishadiyi Road, Huicheng District",516000,+86 1766606000,,23.08441398,114.4092029,Huizhou,China,hz@veloart.cn
CycleCorp,"Jl. Kutai No.53, Darmo, Wonokromo",60261,+62 3199547851,,-7.2925463,112.7333875,Surabaya,Indonesia,cyclecorp@rodamandirisejati.com
RadProfi Düsseldorf GmbH,Krefelder Straße 1,40549,+49 211158800889,,51.2347426,6.7158264,Düsseldorf,Germany,info@radprofi-duesseldorf.de
Evans Cycles Bracknell Princess,Evans Cycles 7 Princess Square,RG12 1LS,+44 3439092985,,51.41546,-0.7506,Bracknell,United Kingdom,manager.bracknellprincess@evanscycles.com
Monsieur Vélo,Friedrichstraße 17,10969,+49 3025796565,,52.50259334,13.39128107,Berlin,Germany,info@monsieurvelo.com
Brilliant Bikes,"13 - 14 Broomhall Buildings, Chobham Road, Sunni",SL5 0DU,+44 8007561284,,51.39272,-0.62832,Ascot,United Kingdom,hello@brilliantbikes.co.uk
Zweirad Hackmann GmbH,Osteck 1,26892,+49 4963905630,,0,0,Dörpen,Germany,info@zweirad-hackmann.de
Bikey Bike Weimar,Steubenstraße 19A,99423,+49 15126337537,,50.98242377,11.32551434,Weimar,Germany,hello@bikeybike.de
AITA Cycle (Shanghai),"Building 6 No.103A, No.8 Hengshan Road, Xuhui District",200002,+86 18600968509,,31.20594344,121.4471859,Shanghai,China,18600968509@126.com
Velo Station Toulouse Esquirol,1 Rue de Metz,31000,+33 582952614,,43.59989,1.44133,Toulouse,France,31toulouse-esquirol@velostation.com
StarTeam,SS7 Appia 41,81100,+39 3351335036,,41.04729613,14.34659027,Caserta,Italy,robinsonsrl2020@gmail.com
Escapa Barcelona Carrer Viladomat,Carrer de Viladomat 310,8029,+34 934197889,,41.38945,2.14441,Barcelona,Spain,jherrero@biciescapa.com
Mammoth Valparaiso,Plaza de Valparaíso 8,28016,+34 9173777770,,40.45482,-3.68072,Madrid,Spain,madrid.valparaiso@mammothbikes.com
Sportland,Viale Sant'Eufemia 108/F,25135,+39 3769321,,45.51796835,10.28636446,Brescia,Italy,magazzino@sportlandweb.it
Morning Cycles Namur,100 Rue des Brasseurs,5000,+32 8130055,,50.46207295,4.864428211,Namur,Belgium,namur@morningcycles.com
Velogik,32 Rue de la Thibaudière,69007,+33 426785134,,45.74987,4.8458729,Lyon,France,vla.lyon7@velogik.com
Ridy Paris 16,1 Rue Jean de la Fontaine,75016,+33 983332566,,0,0,Paris,France,hello@ridy.fr
The Electric Bike Shop Cardiff,140 Queen Street,CF10 2GP,+44 2922806900,,0,0,Cardiff,United Kingdom,info@theelectricbikeshop.co.uk
Ridy Nantes,19 Quai Ferdinand Favre,44000,+33 983332566,,47.21487,-1.54425,Nantes,France,hello@ridy.fr
Pervelo,113 Rooigemlaan,9000,+32 92797097,,51.05553006,3.695591866,Gent,Belgium,info@pervelo.be
Graines de Vélo,Chaussée de Wavre 49,5030,+32 484885347,,50.5726078,4.691258089,Gembloux,Belgium,nicolas.hanssens@grainesdevelo.be
Bike Republic Aalst,Gentsesteenweg 171,9300,+32 53435556,,0,0,Aalst,Belgium,aalst@bikerepublic.be
Bike Republic Ninove,Brakelsesteenweg 240,9406,+32 54343934,,0,0,Ninove,Belgium,ninove@bikerepublic.be
Y's Road・お茶の水,東京都千代田区神田小川町1-6-1　宝ビルB1F-2F,101-0052,+81 352444948,,35.6952112,139.7662862,千代田区,Japan,
ブルーラグ代々木公園,東京都渋谷区富ヶ谷1-43-3 1F,151-0063,+81 364168532,,35.6670334,139.6910377,渋谷区,Japan,
Y's Road・新宿クロスバイク館,東京都新宿区新宿2-19-1　ビッグス新宿ビルB2F,160-0022,+81 353121485,,35.6912925,139.7076516,新宿区,Japan,
カルマックスタジマ,東京都国立市富士見台2-9-1,186-0003,+81 425751568,,35.6838837,139.4471367,国立市,Japan,
ル・サイク 立川店,東京都立川市緑町3-1　GREEN SPRINGS 1F,190-0014,+81 425193658,,35.7035265,139.4114377,立川市,Japan,
トイファクトリー東京,東京都町田市鶴間3-4-1　グランベリーパークヒルサイドヴィラ1階　F104,194-0004,+81 428505548,,35.5087156,139.4726081,町田市,Japan,
Y's Road・東大和,東京都東大和市芋窪5-1137-1,207-0033,+81 425169455,,35.7476112,139.4143187,東大和市,Japan,
Y's Road・川崎,神奈川県川崎市川崎区砂子2-10-2　川崎ミッドマークタワー1F/2F,210-0006,+81 442211531,,35.5294176,139.7011491,川崎市,Japan,
Y's Road・茅ヶ崎,神奈川県茅ヶ崎市中海岸4-12986-52　サザンビーチヒルズ2F,253-0055,+81 467841555,,35.3181233,139.3991607,茅ヶ崎市,Japan,
ル・サイク 土浦店,茨城県土浦市有明町1-30　プレイアトレ土浦1F,300-0035,+81 298463192,,36.0779027,140.2056185,土浦市,Japan,
Y's Road・宇都宮じてんしゃの杜,栃木県宇都宮市岩曽町1482,321-0973,+81 286785326,,36.5836264,139.9171417,宇都宮市,Japan,
Y's Road・越谷,埼玉県越谷市レイクタウン4-1-1　レイクタウンアウトレットセカンドアベニュー1階 NO147区画,343-0828,+81 489675041,,35.880307,139.8248826,越谷市,Japan,
Y's Road・志木,埼玉県志木市本町4-4-26　1F/2F,353-0004,+81 484710069,,35.8267963,139.578506,志木市,Japan,
Y's Road・熊谷,埼玉県熊谷市肥塚935-12,360-0015,+81 485803236,,36.1681096,139.3940178,熊谷市,Japan,
CYCLE YOSHIDA 高崎店,群馬県高崎市問屋町4-3-2,370-0006,+81 273638161,,36.346363,139.01446,高崎市,Japan,
CYCLETECH-IKD,群馬県高崎市若松町79,370-0836,+81 273870230,,36.3181636,139.0035848,高崎市,Japan,
バイシクルわたなべ 浜松店,静岡県浜松市浜北区貴布祢1200番地　プレ葉ウォーク浜北SC 1F,434-8502,+81 534894863,,34.7976728,137.7794985,浜松市,Japan,
トイファクトリー土岐,岐阜県土岐市土岐津町土岐口1372-1　イオンモール土岐1階,509-5122,+81 572565421,,35.3467955,137.1541853,土岐市,Japan,
ウエムラサイクルパーツ住之江本店,大阪府大阪市住之江区粉浜西2-7-7,559-0007,+81 666714402,,34.6180733,135.4882879,大阪市,Japan,
サイクルショップ輪娯ロード,大阪府豊中市桜の町6-8-23　ランドマーク豊中2F,560-0054,+81 668494013,,34.8018803,135.4700598,豊中市,Japan,
Y's Road・京都,京都府京都市中京区裏寺町595　グラン・レ・ジェイド京都河原町1F,604-8041,+81 752547827,,35.0060763,135.7679379,京都市,Japan,
Y's Road・神戸,兵庫県神戸市中央区海岸通10番地　デビスパーキング海岸通1F,650-0024,+81 783337037,,34.6866518,135.1926494,神戸市,Japan,
Bicyclestore Rideworks,兵庫県神戸市東灘区本山中町2-1-32,658-0016,+81 788068639,,34.7266176,135.2863454,神戸市,Japan,
サイクルマーク,兵庫県姫路市飾磨区構2丁目209-2,672-8071,+81 792432818,,34.8100761,134.6600072,姫路市,Japan,
Y's Road・フジグラン広島,広島県広島市中区宝町2-1　フジグラン広島2F,730-0044,+81 822583245,,34.3859633,132.4643249,広島市,Japan,
Y's Road・松山エミフルMASAKI,愛媛県伊予郡松前町筒井850　エミアミューズ1F,791-3120,+81 899844835,,33.7877646,132.7150948,伊予郡,Japan,
Y's Road・福岡天神,福岡県福岡市中央区渡辺通4-9-25　天神ロフトB1F,810-0004,+81 927536910,,33.5869245,130.4015864,福岡市,Japan,
有限会社オートクロギ,宮崎県宮崎市島之内5621-8,880-0121,+81 985397060,,31.9820887,131.4398629,宮崎市,Japan,
バルバワークスエチゼンストア,福井県越前市瓜生町28-22-1,915-0096,+81 778426003,,35.9256608,136.1816899,越前市,Japan,
バルバワークスカナザワストア,石川県金沢市田上本町4-98-1,920-1155,+81 762211037,,36.5377842,136.6925932,金沢市,Japan,
Y's Road・仙台泉,宮城県仙台市泉区山の寺1-1-13,981-3103,+81 223435210,,38.3263676,140.8948347,仙台市,Japan,
Friedrich Rolf GmbH,Anna-Vandenhoeck-Ring 2,37081,+49 5519987743,,51.52385494,9.886986943,Göttingen,Germany,info@autohaus-rolf.de
Radkombinat,Obere Schrangenstraße 4,21335,+49 41317072515,,53.24811302,10.4057333,Lüneburg,Germany,info@radkombinat.com
Radpunk Cycles,Bahnhofstrasse 14-16,59065,+49 23814262260,,51.67908,7.81142,Hamm,Germany,info@radpunkcycles.de
Vélo Sport Center,7 Av JF Kennedy,1855,+352 480202,,0,0,Luxembourg,Luxembourg,info@vsc.lu
Fietsen Wildiers Drongen,31 Baarledorpstraat,9031,+32 92829498,,51.03691263,3.61776661,Gent,Belgium,drongen@fietsenwildiers.be
Y's Road・入間,埼玉県入間市宮寺字3169番地　入間アウトレットパークW棟 2F 4510号,358-0014,+81 429374011,,35.8104322,139.3806943,入間市,Japan,
Altermove Rennes,23 Rue du Puits Mauger,35000,+33 222666161,,48.10545,-1.6818,Rennes,France,rennes-colombia@altermove.com
Cycles Blain Oullins,176 Grande Rue,69600,+33 0469846864,,45.71292231,4.804177693,Oullins,France,oullins@cycles-blain.com
Cycles Blain Vienne-Sud,5 Quai Jean Jaurès,38200,+33 0474877327,,45.5266,4.87306,Vienne,France,vienne-sud@cycles-blain.com
Fahrrad XXL Stores GmbH,In der Schmalau 55,90765,+49 6960511770,,49.51763209,10.99534338,Fürth,Germany,einkauf-stores@fahrrad-xxl.de
Velo Deluxe,39 Dumortierlaan,8300,+32 50626696,,0,0,Knokke-Heist,Belgium,info@velodeluxe.be
Faltrad XXS,Wallstraße 95,45770,+49 23652000800,,51.67000404,7.171745215,Marl,Germany,info@faltradxxs.de
Ren-auto Piraccini,24 Viale Italia,47921,+39 0541358811,,44.06548365,12.53743403,Rimini,Italy,s.piraccini@renauto.it
Küstenrad Brunsbüttel,Koogstraße 1,25541,+49 48525373555,,53.89790955,9.128697669,Brunsbüttel,Germany,team@kuestenrad-koogstrasse.de
Küstenrad E-Bike Store Pinneberg,Mühlenstraße 109,25421,+49 41018128122,,53.657892,9.774798,Pinneberg,Germany,team@kuestenrad-pinneberg.de
Saitta Cycles Spy,44 Route de Saussin,5190,+32 8122034,,50.4886,4.71231,Jemeppe-sur-Sambre,Belgium,spy@saitta.be
Evans Cycles Trowbridge,Unit B The Gateway Shopping Centre Bythesea Road,BA14 8HR,+44 3439092374,,51.31965941,-2.212038235,Trowbridge,United Kingdom,manager.trowbridgeev@evanscycles.com
Bensone,9 Via Levizzani,41121,+39 059236672,,44.64552761,10.92326073,Modena,Italy,ennio@bensone.it
Sportler Bike Bolzano,Via Bruno Buozzi 18,39100,+39 0458531648,,46.47321897,11.32533805,Bolzano,Italy,officina141@sportler.com
Pro-M Bergamo,Via Giovanni D'Arco 2,24066,+39 0353058594,,45.6982,9.7386,Pedrengo,Italy,bergamo@pro-mstore.com
Zweiradcenter Stadler Nürnberg GmbH,Nopitschstr. 82,90441,+49 911480490,,49.42864879,11.06004374,Nürnberg,Germany,fahrradverkauf-intern-nue@zweirad-stadler.de
Zweirad-Center Stadler Leipzig Alte Messe GmbH,Straße des 18. Oktober Nr. 46,4103,+49 3412120680,,51.32771,12.38837,Leipzig,Germany,fahrradverkauf-intern-lam@zweirad-stadler.de
Zweiradcenter Stadler Mannheim GmbH,Casterfeldstr. 40-44,68199,+49 6218755390,,49.44915,8.501168,Mannheim,Germany,fahrradverkauf-intern-ma@zweirad-stadler.de
Zweiradcenter Stadler Hannover GmbH,Göttingerstr. 16,30449,+49 5112351000,,52.35641035,9.715839347,Hannover,Germany,fahrradverkauf-intern-h@zweirad-stadler.de
Zweiradcenter Stadler Regensburg GmbH,Kirchmeierstr. 22,93051,+49 94137880,,49.01031194,12.06269256,Regensburg,Germany,fahrradverkauf-intern-r@zweirad-stadler.de
Zweirad Center Stadler in Austria GmbH & Co.KG,Triester Str. 10,2331,+43 160918400,,48.13666,16.3253,Vösendorf,Austria,fahrradverkauf-intern-w@zweirad-stadler.at
Zweiradcenter Stadler Bremen GmbH,Hafenstr. 1,28217,+49 421522770,,53.08906678,8.782442642,Bremen,Germany,fahrradverkauf-hb@zweirad-stadler.de
Zweiradcenter Stadler Frankfurt GmbH,Borsigallee 23,60388,+49 6967728440,,50.13764733,8.74386168,Frankfurt,Germany,fahrradverkauf-intern-f@zweirad-stadler.de
Fahrrad XXL Hürter,Hammer Straße 420,48153,+49 251978030,,0,0,Münster,Germany,kundenservice-huerter@fahrrad-xxl.de
Angry Catfish,2900 E 42nd Street,55406,+1 6127221538,,-93.2309815,44.9271786,Minneapolis,United States,buyer@angrycatfishbicycle.com
King Kog,705 Grand Street,11211,+1 3476892299,,40.7117113,-73.9445768,Brooklyn,United States,kingkogbrooklyn@gmail.com
Velogik Grenoble,28 Rue Nicolas Chorier,38100,+33 0176210740,,45.18603,5.71297,Grenoble,France,vla.grenoble@velogik.com
Velogik Paris 10,17 Rue de Paradis,75010,+33 0187447857,,48.87465,2.35312,Paris,France,vla.parisparadis@velogik.com
Velogik Paris 12,1 Passage Marie Rogissart,75012,+33 0458171789,,48.84756633,2.385465833,Paris,France,vla.parisdiderot@velogik.com
Cycles Blain Oullins,176 Grande Rue,69600,+33 0469846864,,0,0,Oullins,France,oullins@cycles-blain.com
Cycles Blain Vienne-Sud,5 Quai Jean Jaurès,38200,+33 0474877327,,0,0,Vienne,France,viennesud@cycles-blain.com
E-Bike Solutions OUEST,27 rue Louis Pasteur ZI de RAGON,44119,+33 240377001,,0,0,TREILLIERES,France,maxime@ebikesolutions.fr
DVELOS SAS,350 Avenue de Chambéry,73230,+33 0677633118,,0,0,Saint-Alban-Leysse,France,s.melin@dvelos.com
FAHRRAD XXL LEIPZIG TAUCHA,Otto-Schmidt-Straße 6,4425,+49 34523937240,,51.36991,12.4771,Taucha,Germany,info.lei@fahrrad-xxl.de
Cyclable Nantes Beaujoire,10 Ter Boulevard de la Beaujoire,44300,+33 0974044369,,47.259371,-1.5122958,Nantes,France,nantes-beaujoire@cyclable.com
West Point Cycles - Main St.,215 East 2nd Avenue,V5T 1B6,+01 6045599944,,0,0,Vancouver,Canada,jessicab@westpointcycles.com
West Point Cycles - Langley,20445 62 Avenue,V3A 5E6,+01 6044274797,,0,0,Langley,Canada,jessicab@westpointcycles.com
Velo Deluxe Beernem,Wingene Steenweg 65a,8730,+32 50719574,,0,0,Beernem,Belgium,info@velodeluxe.be
Escapa Girona,Carrer Josep Flores 54,17840,+34 972172078,,0,0,Sarrià de Ter,Spain,infogirona@biciescapa.com
e-motion e-Bike Welt Eberswalde,Magistrale 14,16244,+49 33354519024,,0,0,Schorfheide,Germany,eberswalde@emotion-technologies.de
Escapa Barcelona Nord,Avinguda dels Quinze 25,8031,+34 933404480,,0,0,Barcelona,Spain,infobcnnord@biciescapa.com
Velo Station Pau,9 Boulevard d'Alsace Lorraine,64000,+33 0559022754,,43.3021649,-0.3602547,Pau,France,64pau@velostation.com
Velogik Atelier Vannes,14 bis rue des Logodens,56880,+33 0631163789,,0,0,PLOEREN,France,vla.breizh@velogik.com
Cyclable Avignon Les-Angles,1300 Avenue de la 2eme Division Blindée,30133,+33 490033171,,0,0,Les Angles,France,avignon-les-angles@cyclable.com
Cyclable Nancy,"17 rue des Carmes,",54000,+33 649676673,,0,0,Nancy,France,nancy@cyclable.com
The Bike Shop Bali,"Ikat Plaza, Jl. Bypass Ngurah Rai No.505",80221,+62 3618465531,,0,0,Bali,Indonesia,info@thebikeshopbali.com
Pastel - Batignolles,29 rue des Batignolles,75017,+33 651510458,,48.88473,2.32108,Paris,France,hello.batignolles@pastel-cycles.com
B&B Dominik Raza- default delivery address,ul. Wędkarska 2A lok. A1,04-869,+48 790322057,,52.17464,21.15108,Warszawa,Poland,sklep@ivelo.pl
En Selle Marcel Bordeaux,"Hangar 16, Bord’eau Village Quai des Chartrons",33300,+33 556304934,,44.852335,-0.567895,BORDEAUX,France,chartrons@ensellemarcel.com
"Rutland Cycling, Whitwell",Whitwell Leisure Park Bull Brig Lane,LE15 8BL,+44 1780460705,,52.66349827,-0.634534825,Oakham,United Kingdom,whitwell@rutlandcycling.com
Balfe's Bikes - Gatwick,Unit 2 Camino Park James Watt Way,RH10 9TZ,+44 1293850919,,51.14106286,-0.16766215,Crawley,United Kingdom,gatwick@balfesbikes.co.uk
Lucien Wetteren,Moerstraat 49,9230,+32 93691187,,51.00545,3.8813,Wetteren,Belgium,wetteren@lucien.bike
PRIMO Cycles - Grand Arcade,Corn Exchange Street,CB2 3QF,+44 1223307655,,52.2032554,0.121548624,Cambridge,United Kingdom,grandarcade@primocycles.co.uk
Cyclable Besançon,21B rue Joachim Du Bellay,25000,+33 951914668,,47.21332,5.94928,Besançon,France,besancon@cyclable.com
Cyclable Royan,16 rue Notre-Dame,17200,+33 663249854,,45.62397,-1.03103,Royan,France,royan@cyclable.com
Rutland Cycling - Nottingham,184 Nottingham Road,NG7 7BA,+44 1159783876,,52.97769,-1.16775,Nottingham,United Kingdom,nottingham@specializedconceptstore.co.uk
"The Electric Bike Shop, Brentwood",63 High Street,CM14 4RH,+44 1277671488,,51.62043,0.30221,Brentwood,United Kingdom,brentwood@theelectricbikeshop.co.uk
Aloha Velo,339 Coral Street D ,96813,+1 8087225454,,21.2977716,-157.8605857,Honolulu,United States,
Boondocks Bikes Davao,"Matina Town Square, Talomo",8000,+63 9189214142,,7.19724,125.4992,Davao City,Philippines,mtbike6061@yahoo.com
Boss Franc Bike Parts,"12 E Broadway Ave, New Manila",1112,+63 282887470,,14.61165187,121.0330511,Quezon City,Philippines,franklin.tenorio70@gmail.com
Caferista,"11  Brixton Street, Kapitolyo",1603,+63 9176314376,,14.57137271,121.0563109,Pasig City,Philippines,tracytirador@gmail.com
e-motion e-Bike Welt Lüdinghausen,Seppenrader Straße 18,59348,+49 2591990120,,51.767051,7.430838,Lüdinghausen,Germany,luedinghausen@emotion-technologies.de
Escapa Tarragona,Carretera Valencia 208F,43006,+34 977547057,,41.1153,1.21649,Tarragona,Spain,infotarragona@biciescapa.com
